{"type":"FeatureCollection","features":[{"type":"Feature","geometry":{"type":"Point","coordinates":[19.797532,41.315449]},"properties":{"name":"Selitë","band":0,"modes":"bus","arr":["1A"],"off":[0,-0.8]}},{"type":"Feature","geometry":{"type":"Point","coordinates":[19.797532,41.315449]},"properties":{"line":"1A","mode":"bus","color":"#0059a9","colorDark":"#00294f","band":0,"off":[0,1.1]}},{"type":"Feature","geometry":{"type":"Point","coordinates":[19.831418,41.350561]},"properties":{"name":"Allias","band":0,"modes":"bus","arr":["1A","1B"],"off":[0,-0.8]}},{"type":"Feature","geometry":{"type":"Point","coordinates":[19.831418,41.350561]},"properties":{"line":"1A","mode":"bus","color":"#0059a9","colorDark":"#00294f","band":0,"off":[-1.7,1.1]}},{"type":"Feature","geometry":{"type":"Point","coordinates":[19.831418,41.350561]},"properties":{"line":"1B","mode":"bus","color":"#0059a9","colorDark":"#00294f","band":0,"off":[1.7,1.1]}},{"type":"Feature","geometry":{"type":"Point","coordinates":[19.816415,41.335257]},"properties":{"name":"Shkencat e Natyrës","band":0,"modes":"bus","arr":["2"],"off":[0,-0.8]}},{"type":"Feature","geometry":{"type":"Point","coordinates":[19.816415,41.335257]},"properties":{"line":"2","mode":"bus","color":"#0059a9","colorDark":"#00294f","band":0,"off":[0,1.1]}},{"type":"Feature","geometry":{"type":"Point","coordinates":[19.819676,41.330577]},"properties":{"name":"Muzeu Kombëtar B","band":0,"modes":"bus","arr":["3C","4","5A","6","8A","8B","8C","11"],"off":[0,-0.8]}},{"type":"Feature","geometry":{"type":"Point","coordinates":[19.819676,41.330577]},"properties":{"name":"Biblioteka","band":0,"modes":"bus","arr":["3C","4","5A","6","8A","8B","8C","11"],"off":[0,-1.9]}},{"type":"Feature","geometry":{"type":"Point","coordinates":[19.819676,41.330577]},"properties":{"name":"9 Katëshet B","band":0,"modes":"bus","arr":["3C","4","5A","6","8A","8B","8C","11"],"off":[0,-3]}},{"type":"Feature","geometry":{"type":"Point","coordinates":[19.819676,41.330577]},"properties":{"line":"3C","mode":"bus","color":"#0059a9","colorDark":"#00294f","band":0,"off":[-6.8,1.1]}},{"type":"Feature","geometry":{"type":"Point","coordinates":[19.819676,41.330577]},"properties":{"line":"4","mode":"bus","color":"#0059a9","colorDark":"#00294f","band":0,"off":[-3.4,1.1]}},{"type":"Feature","geometry":{"type":"Point","coordinates":[19.819676,41.330577]},"properties":{"line":"5A","mode":"bus","color":"#0059a9","colorDark":"#00294f","band":0,"off":[0,1.1]}},{"type":"Feature","geometry":{"type":"Point","coordinates":[19.819676,41.330577]},"properties":{"line":"6","mode":"bus","color":"#0059a9","colorDark":"#00294f","band":0,"off":[3.4,1.1]}},{"type":"Feature","geometry":{"type":"Point","coordinates":[19.819676,41.330577]},"properties":{"line":"8A","mode":"bus","color":"#0059a9","colorDark":"#00294f","band":0,"off":[6.8,1.1]}},{"type":"Feature","geometry":{"type":"Point","coordinates":[19.819676,41.330577]},"properties":{"line":"8B","mode":"bus","color":"#0059a9","colorDark":"#00294f","band":0,"off":[-3.4,3.1]}},{"type":"Feature","geometry":{"type":"Point","coordinates":[19.819676,41.330577]},"properties":{"line":"8C","mode":"bus","color":"#0059a9","colorDark":"#00294f","band":0,"off":[0,3.1]}},{"type":"Feature","geometry":{"type":"Point","coordinates":[19.819676,41.330577]},"properties":{"line":"11","mode":"bus","color":"#0059a9","colorDark":"#00294f","band":0,"off":[3.4,3.1]}},{"type":"Feature","geometry":{"type":"Point","coordinates":[19.798437,41.306921]},"properties":{"name":"Kodra Diellit 2","band":0,"modes":"bus","arr":["1B"],"off":[0,-0.8]}},{"type":"Feature","geometry":{"type":"Point","coordinates":[19.798437,41.306921]},"properties":{"line":"1B","mode":"bus","color":"#0059a9","colorDark":"#00294f","band":0,"off":[0,1.1]}},{"type":"Feature","geometry":{"type":"Point","coordinates":[19.856767,41.283067]},"properties":{"name":"Terminali Juglindor","band":0,"modes":"bus","arr":["2","8A"],"off":[0,-0.8]}},{"type":"Feature","geometry":{"type":"Point","coordinates":[19.856767,41.283067]},"properties":{"name":"TEG","band":0,"modes":"bus","arr":["2","8A"],"off":[0,-3]}},{"type":"Feature","geometry":{"type":"Point","coordinates":[19.856767,41.283067]},"properties":{"line":"2","mode":"bus","color":"#0059a9","colorDark":"#00294f","band":0,"off":[-1.7,1.1]}},{"type":"Feature","geometry":{"type":"Point","coordinates":[19.856767,41.283067]},"properties":{"line":"8A","mode":"bus","color":"#0059a9","colorDark":"#00294f","band":0,"off":[1.7,1.1]}},{"type":"Feature","geometry":{"type":"Point","coordinates":[19.765611,41.340793]},"properties":{"name":"Serat","band":0,"modes":"bus","arr":["3A","3B"],"off":[0,-0.8]}},{"type":"Feature","geometry":{"type":"Point","coordinates":[19.765611,41.340793]},"properties":{"line":"3A","mode":"bus","color":"#0059a9","colorDark":"#00294f","band":0,"off":[-1.7,1.1]}},{"type":"Feature","geometry":{"type":"Point","coordinates":[19.765611,41.340793]},"properties":{"line":"3B","mode":"bus","color":"#0059a9","colorDark":"#00294f","band":0,"off":[1.7,1.1]}},{"type":"Feature","geometry":{"type":"Point","coordinates":[19.784126,41.331482]},"properties":{"name":"Kryqëzimi Kashar","band":0,"modes":"bus","arr":["13A","13B"],"off":[0,-0.8]}},{"type":"Feature","geometry":{"type":"Point","coordinates":[19.784126,41.331482]},"properties":{"name":"Kristaq Mone","band":0,"modes":"bus","arr":["13A","13B"],"off":[0,-1.9]}},{"type":"Feature","geometry":{"type":"Point","coordinates":[19.784126,41.331482]},"properties":{"line":"13A","mode":"bus","color":"#0059a9","colorDark":"#00294f","band":0,"off":[-1.7,1.1]}},{"type":"Feature","geometry":{"type":"Point","coordinates":[19.784126,41.331482]},"properties":{"line":"13B","mode":"bus","color":"#0059a9","colorDark":"#00294f","band":0,"off":[1.7,1.1]}},{"type":"Feature","geometry":{"type":"Point","coordinates":[19.738521,41.352888]},"properties":{"name":"100 Vjetori","band":0,"modes":"bus","arr":["3C"],"off":[0,-0.8]}},{"type":"Feature","geometry":{"type":"Point","coordinates":[19.738521,41.352888]},"properties":{"line":"3C","mode":"bus","color":"#0059a9","colorDark":"#00294f","band":0,"off":[0,1.1]}},{"type":"Feature","geometry":{"type":"Point","coordinates":[19.68882,41.367165]},"properties":{"name":"City Park","band":0,"modes":"bus","arr":["4"],"off":[0,-0.8]}},{"type":"Feature","geometry":{"type":"Point","coordinates":[19.68882,41.367165]},"properties":{"line":"4","mode":"bus","color":"#0059a9","colorDark":"#00294f","band":0,"off":[0,1.1]}},{"type":"Feature","geometry":{"type":"Point","coordinates":[19.870394,41.331856]},"properties":{"name":"Autotraktorët","band":0,"modes":"bus","arr":["5A"],"off":[0,-0.8]}},{"type":"Feature","geometry":{"type":"Point","coordinates":[19.870394,41.331856]},"properties":{"line":"5A","mode":"bus","color":"#0059a9","colorDark":"#00294f","band":0,"off":[0,1.1]}},{"type":"Feature","geometry":{"type":"Point","coordinates":[19.816446,41.32597]},"properties":{"name":"Gjethja","band":0,"modes":"bus","arr":["5B","10A","10B"],"off":[0,-0.8]}},{"type":"Feature","geometry":{"type":"Point","coordinates":[19.816446,41.32597]},"properties":{"name":"Dollari B","band":0,"modes":"bus","arr":["5B","10A","10B"],"off":[0,-1.9]}},{"type":"Feature","geometry":{"type":"Point","coordinates":[19.816446,41.32597]},"properties":{"line":"5B","mode":"bus","color":"#0059a9","colorDark":"#00294f","band":0,"off":[-3.4,1.1]}},{"type":"Feature","geometry":{"type":"Point","coordinates":[19.816446,41.32597]},"properties":{"line":"10A","mode":"bus","color":"#0059a9","colorDark":"#00294f","band":0,"off":[0,1.1]}},{"type":"Feature","geometry":{"type":"Point","coordinates":[19.816446,41.32597]},"properties":{"line":"10B","mode":"bus","color":"#0059a9","colorDark":"#00294f","band":0,"off":[3.4,1.1]}},{"type":"Feature","geometry":{"type":"Point","coordinates":[19.772,41.360663]},"properties":{"name":"Instituti Bujqësor","band":0,"modes":"bus","arr":["5B"],"off":[0,-0.8]}},{"type":"Feature","geometry":{"type":"Point","coordinates":[19.772,41.360663]},"properties":{"line":"5B","mode":"bus","color":"#0059a9","colorDark":"#00294f","band":0,"off":[0,1.1]}},{"type":"Feature","geometry":{"type":"Point","coordinates":[19.757587,41.365895]},"properties":{"name":"Bregu Lumit","band":0,"modes":"bus","arr":["6"],"off":[0,-0.8]}},{"type":"Feature","geometry":{"type":"Point","coordinates":[19.757587,41.365895]},"properties":{"line":"6","mode":"bus","color":"#0059a9","colorDark":"#00294f","band":0,"off":[0,1.1]}},{"type":"Feature","geometry":{"type":"Point","coordinates":[19.843793,41.312709]},"properties":{"name":"Sanatorium","band":0,"modes":"bus","arr":["8B"],"off":[0,-0.8]}},{"type":"Feature","geometry":{"type":"Point","coordinates":[19.843793,41.312709]},"properties":{"line":"8B","mode":"bus","color":"#0059a9","colorDark":"#00294f","band":0,"off":[0,1.1]}},{"type":"Feature","geometry":{"type":"Point","coordinates":[19.830122,41.29946]},"properties":{"name":"Sauk i Vjeter","band":0,"modes":"bus","arr":["8C"],"off":[0,-0.8]}},{"type":"Feature","geometry":{"type":"Point","coordinates":[19.830122,41.29946]},"properties":{"line":"8C","mode":"bus","color":"#0059a9","colorDark":"#00294f","band":0,"off":[0,1.1]}},{"type":"Feature","geometry":{"type":"Point","coordinates":[19.851001,41.322988]},"properties":{"name":"Depo Ujit B","band":0,"modes":"bus","arr":["9A","9B","10A"],"off":[0,-0.8]}},{"type":"Feature","geometry":{"type":"Point","coordinates":[19.851001,41.322988]},"properties":{"name":"Depo Ujit A","band":0,"modes":"bus","arr":["9A","9B","10A"],"off":[0,-1.9]}},{"type":"Feature","geometry":{"type":"Point","coordinates":[19.851001,41.322988]},"properties":{"name":"Binak Alia","band":0,"modes":"bus","arr":["9A","9B","10A"],"off":[0,-3]}},{"type":"Feature","geometry":{"type":"Point","coordinates":[19.851001,41.322988]},"properties":{"line":"9A","mode":"bus","color":"#0059a9","colorDark":"#00294f","band":0,"off":[-3.4,1.1]}},{"type":"Feature","geometry":{"type":"Point","coordinates":[19.851001,41.322988]},"properties":{"line":"9B","mode":"bus","color":"#0059a9","colorDark":"#00294f","band":0,"off":[0,1.1]}},{"type":"Feature","geometry":{"type":"Point","coordinates":[19.851001,41.322988]},"properties":{"line":"10A","mode":"bus","color":"#0059a9","colorDark":"#00294f","band":0,"off":[3.4,1.1]}},{"type":"Feature","geometry":{"type":"Point","coordinates":[19.806714,41.347405]},"properties":{"name":"Uzina Dinamo","band":0,"modes":"bus","arr":["9A","9B","12A"],"off":[0,-0.8]}},{"type":"Feature","geometry":{"type":"Point","coordinates":[19.806714,41.347405]},"properties":{"line":"9A","mode":"bus","color":"#0059a9","colorDark":"#00294f","band":0,"off":[-3.4,1.1]}},{"type":"Feature","geometry":{"type":"Point","coordinates":[19.806714,41.347405]},"properties":{"line":"9B","mode":"bus","color":"#0059a9","colorDark":"#00294f","band":0,"off":[0,1.1]}},{"type":"Feature","geometry":{"type":"Point","coordinates":[19.806714,41.347405]},"properties":{"line":"12A","mode":"bus","color":"#0059a9","colorDark":"#00294f","band":0,"off":[3.4,1.1]}},{"type":"Feature","geometry":{"type":"Point","coordinates":[19.85477,41.320252]},"properties":{"name":"Çollakët","band":0,"modes":"bus","arr":["10B"],"off":[0,-0.8]}},{"type":"Feature","geometry":{"type":"Point","coordinates":[19.85477,41.320252]},"properties":{"line":"10B","mode":"bus","color":"#0059a9","colorDark":"#00294f","band":0,"off":[0,1.1]}},{"type":"Feature","geometry":{"type":"Point","coordinates":[19.84836,41.334355]},"properties":{"name":"Shkozë","band":0,"modes":"bus","arr":["10C"],"off":[0,-0.8]}},{"type":"Feature","geometry":{"type":"Point","coordinates":[19.84836,41.334355]},"properties":{"line":"10C","mode":"bus","color":"#0059a9","colorDark":"#00294f","band":0,"off":[0,1.1]}},{"type":"Feature","geometry":{"type":"Point","coordinates":[19.787651,41.335396]},"properties":{"name":"Dhora Leka","band":0,"modes":"bus","arr":["10C"],"off":[0,-0.8]}},{"type":"Feature","geometry":{"type":"Point","coordinates":[19.787651,41.335396]},"properties":{"line":"10C","mode":"bus","color":"#0059a9","colorDark":"#00294f","band":0,"off":[0,1.1]}},{"type":"Feature","geometry":{"type":"Point","coordinates":[19.867336,41.350504]},"properties":{"name":"Thesari","band":0,"modes":"bus","arr":["11"],"off":[0,-0.8]}},{"type":"Feature","geometry":{"type":"Point","coordinates":[19.867336,41.350504]},"properties":{"line":"11","mode":"bus","color":"#0059a9","colorDark":"#00294f","band":0,"off":[0,1.1]}},{"type":"Feature","geometry":{"type":"Point","coordinates":[19.745329,41.303334]},"properties":{"name":"Karburanti","band":0,"modes":"bus","arr":["12A","12B"],"off":[0,-0.8]}},{"type":"Feature","geometry":{"type":"Point","coordinates":[19.745329,41.303334]},"properties":{"line":"12A","mode":"bus","color":"#0059a9","colorDark":"#00294f","band":0,"off":[-1.7,1.1]}},{"type":"Feature","geometry":{"type":"Point","coordinates":[19.745329,41.303334]},"properties":{"line":"12B","mode":"bus","color":"#0059a9","colorDark":"#00294f","band":0,"off":[1.7,1.1]}},{"type":"Feature","geometry":{"type":"Point","coordinates":[19.768009,41.314314]},"properties":{"name":"Kombinat","band":0,"modes":"bus","arr":["15A","15B"],"off":[0,-0.8]}},{"type":"Feature","geometry":{"type":"Point","coordinates":[19.768009,41.314314]},"properties":{"line":"15A","mode":"bus","color":"#0059a9","colorDark":"#00294f","band":0,"off":[-1.7,1.1]}},{"type":"Feature","geometry":{"type":"Point","coordinates":[19.768009,41.314314]},"properties":{"line":"15B","mode":"bus","color":"#0059a9","colorDark":"#00294f","band":0,"off":[1.7,1.1]}},{"type":"Feature","geometry":{"type":"Point","coordinates":[19.82382,41.348999]},"properties":{"name":"5 Maji","band":0,"modes":"bus","arr":["12B"],"off":[0,-0.8]}},{"type":"Feature","geometry":{"type":"Point","coordinates":[19.82382,41.348999]},"properties":{"line":"12B","mode":"bus","color":"#0059a9","colorDark":"#00294f","band":0,"off":[0,1.1]}},{"type":"Feature","geometry":{"type":"Point","coordinates":[19.850503,41.34543]},"properties":{"name":"Aleksandër Moisiu","band":0,"modes":"bus","arr":["15A"],"off":[0,-0.8]}},{"type":"Feature","geometry":{"type":"Point","coordinates":[19.850503,41.34543]},"properties":{"line":"15A","mode":"bus","color":"#0059a9","colorDark":"#00294f","band":0,"off":[0,1.1]}},{"type":"Feature","geometry":{"type":"Point","coordinates":[19.854952,41.369879]},"properties":{"name":"Rruga Arbërit","band":0,"modes":"bus","arr":["15B"],"off":[0,-0.8]}},{"type":"Feature","geometry":{"type":"Point","coordinates":[19.854952,41.369879]},"properties":{"line":"15B","mode":"bus","color":"#0059a9","colorDark":"#00294f","band":0,"off":[0,1.1]}},{"type":"Feature","geometry":{"type":"Point","coordinates":[19.829328,41.339686]},"properties":{"name":"Farmacia 10","band":0,"modes":"bus","arr":["16A","16B"],"off":[0,-0.8]}},{"type":"Feature","geometry":{"type":"Point","coordinates":[19.829328,41.339686]},"properties":{"line":"16A","mode":"bus","color":"#0059a9","colorDark":"#00294f","band":0,"off":[-1.7,1.1]}},{"type":"Feature","geometry":{"type":"Point","coordinates":[19.829328,41.339686]},"properties":{"line":"16B","mode":"bus","color":"#0059a9","colorDark":"#00294f","band":0,"off":[1.7,1.1]}},{"type":"Feature","geometry":{"type":"Point","coordinates":[19.797532,41.315449]},"properties":{"name":"Selitë","band":1,"modes":"bus","arr":["1A"],"off":[0,-0.8]}},{"type":"Feature","geometry":{"type":"Point","coordinates":[19.797532,41.315449]},"properties":{"line":"1A","mode":"bus","color":"#0059a9","colorDark":"#00294f","band":1,"off":[0,1.1]}},{"type":"Feature","geometry":{"type":"Point","coordinates":[19.831418,41.350561]},"properties":{"name":"Allias","band":1,"modes":"bus","arr":["1A","1B"],"off":[0,-0.8]}},{"type":"Feature","geometry":{"type":"Point","coordinates":[19.831418,41.350561]},"properties":{"line":"1A","mode":"bus","color":"#0059a9","colorDark":"#00294f","band":1,"off":[-1.7,1.1]}},{"type":"Feature","geometry":{"type":"Point","coordinates":[19.831418,41.350561]},"properties":{"line":"1B","mode":"bus","color":"#0059a9","colorDark":"#00294f","band":1,"off":[1.7,1.1]}},{"type":"Feature","geometry":{"type":"Point","coordinates":[19.816415,41.335257]},"properties":{"name":"Shkencat e Natyrës","band":1,"modes":"bus","arr":["2"],"off":[0,-0.8]}},{"type":"Feature","geometry":{"type":"Point","coordinates":[19.816415,41.335257]},"properties":{"line":"2","mode":"bus","color":"#0059a9","colorDark":"#00294f","band":1,"off":[0,1.1]}},{"type":"Feature","geometry":{"type":"Point","coordinates":[19.819676,41.329793]},"properties":{"name":"Muzeu Kombëtar B","band":1,"modes":"bus","arr":["3C","4","5A","6","8A","8B","8C","11"],"off":[0,-0.8]}},{"type":"Feature","geometry":{"type":"Point","coordinates":[19.819676,41.329793]},"properties":{"name":"Biblioteka","band":1,"modes":"bus","arr":["3C","4","5A","6","8A","8B","8C","11"],"off":[0,-1.9]}},{"type":"Feature","geometry":{"type":"Point","coordinates":[19.819676,41.329793]},"properties":{"name":"9 Katëshet B","band":1,"modes":"bus","arr":["3C","4","5A","6","8A","8B","8C","11"],"off":[0,-3]}},{"type":"Feature","geometry":{"type":"Point","coordinates":[19.819676,41.329793]},"properties":{"line":"3C","mode":"bus","color":"#0059a9","colorDark":"#00294f","band":1,"off":[-6.8,1.1]}},{"type":"Feature","geometry":{"type":"Point","coordinates":[19.819676,41.329793]},"properties":{"line":"4","mode":"bus","color":"#0059a9","colorDark":"#00294f","band":1,"off":[-3.4,1.1]}},{"type":"Feature","geometry":{"type":"Point","coordinates":[19.819676,41.329793]},"properties":{"line":"5A","mode":"bus","color":"#0059a9","colorDark":"#00294f","band":1,"off":[0,1.1]}},{"type":"Feature","geometry":{"type":"Point","coordinates":[19.819676,41.329793]},"properties":{"line":"6","mode":"bus","color":"#0059a9","colorDark":"#00294f","band":1,"off":[3.4,1.1]}},{"type":"Feature","geometry":{"type":"Point","coordinates":[19.819676,41.329793]},"properties":{"line":"8A","mode":"bus","color":"#0059a9","colorDark":"#00294f","band":1,"off":[6.8,1.1]}},{"type":"Feature","geometry":{"type":"Point","coordinates":[19.819676,41.329793]},"properties":{"line":"8B","mode":"bus","color":"#0059a9","colorDark":"#00294f","band":1,"off":[-3.4,3.1]}},{"type":"Feature","geometry":{"type":"Point","coordinates":[19.819676,41.329793]},"properties":{"line":"8C","mode":"bus","color":"#0059a9","colorDark":"#00294f","band":1,"off":[0,3.1]}},{"type":"Feature","geometry":{"type":"Point","coordinates":[19.819676,41.329793]},"properties":{"line":"11","mode":"bus","color":"#0059a9","colorDark":"#00294f","band":1,"off":[3.4,3.1]}},{"type":"Feature","geometry":{"type":"Point","coordinates":[19.798437,41.306921]},"properties":{"name":"Kodra Diellit 2","band":1,"modes":"bus","arr":["1B"],"off":[0,-0.8]}},{"type":"Feature","geometry":{"type":"Point","coordinates":[19.798437,41.306921]},"properties":{"line":"1B","mode":"bus","color":"#0059a9","colorDark":"#00294f","band":1,"off":[0,1.1]}},{"type":"Feature","geometry":{"type":"Point","coordinates":[19.858435,41.282944]},"properties":{"name":"TEG","band":1,"modes":"bus","arr":["2"],"off":[0,-0.8]}},{"type":"Feature","geometry":{"type":"Point","coordinates":[19.858435,41.282944]},"properties":{"line":"2","mode":"bus","color":"#0059a9","colorDark":"#00294f","band":1,"off":[0,1.1]}},{"type":"Feature","geometry":{"type":"Point","coordinates":[19.855098,41.28319]},"properties":{"name":"Terminali Juglindor","band":1,"modes":"bus","arr":["8A"],"off":[0,-0.8]}},{"type":"Feature","geometry":{"type":"Point","coordinates":[19.855098,41.28319]},"properties":{"line":"8A","mode":"bus","color":"#0059a9","colorDark":"#00294f","band":1,"off":[0,1.1]}},{"type":"Feature","geometry":{"type":"Point","coordinates":[19.765611,41.340793]},"properties":{"name":"Serat","band":1,"modes":"bus","arr":["3A","3B"],"off":[0,-0.8]}},{"type":"Feature","geometry":{"type":"Point","coordinates":[19.765611,41.340793]},"properties":{"line":"3A","mode":"bus","color":"#0059a9","colorDark":"#00294f","band":1,"off":[-1.7,1.1]}},{"type":"Feature","geometry":{"type":"Point","coordinates":[19.765611,41.340793]},"properties":{"line":"3B","mode":"bus","color":"#0059a9","colorDark":"#00294f","band":1,"off":[1.7,1.1]}},{"type":"Feature","geometry":{"type":"Point","coordinates":[19.783778,41.332576]},"properties":{"name":"Kristaq Mone","band":1,"modes":"bus","arr":["13A"],"off":[0,-0.8]}},{"type":"Feature","geometry":{"type":"Point","coordinates":[19.783778,41.332576]},"properties":{"line":"13A","mode":"bus","color":"#0059a9","colorDark":"#00294f","band":1,"off":[0,1.1]}},{"type":"Feature","geometry":{"type":"Point","coordinates":[19.784473,41.330387]},"properties":{"name":"Kryqëzimi Kashar","band":1,"modes":"bus","arr":["13B"],"off":[0,-0.8]}},{"type":"Feature","geometry":{"type":"Point","coordinates":[19.784473,41.330387]},"properties":{"line":"13B","mode":"bus","color":"#0059a9","colorDark":"#00294f","band":1,"off":[0,1.1]}},{"type":"Feature","geometry":{"type":"Point","coordinates":[19.738521,41.352888]},"properties":{"name":"100 Vjetori","band":1,"modes":"bus","arr":["3C"],"off":[0,-0.8]}},{"type":"Feature","geometry":{"type":"Point","coordinates":[19.738521,41.352888]},"properties":{"line":"3C","mode":"bus","color":"#0059a9","colorDark":"#00294f","band":1,"off":[0,1.1]}},{"type":"Feature","geometry":{"type":"Point","coordinates":[19.68882,41.367165]},"properties":{"name":"City Park","band":1,"modes":"bus","arr":["4"],"off":[0,-0.8]}},{"type":"Feature","geometry":{"type":"Point","coordinates":[19.68882,41.367165]},"properties":{"line":"4","mode":"bus","color":"#0059a9","colorDark":"#00294f","band":1,"off":[0,1.1]}},{"type":"Feature","geometry":{"type":"Point","coordinates":[19.870394,41.331856]},"properties":{"name":"Autotraktorët","band":1,"modes":"bus","arr":["5A"],"off":[0,-0.8]}},{"type":"Feature","geometry":{"type":"Point","coordinates":[19.870394,41.331856]},"properties":{"line":"5A","mode":"bus","color":"#0059a9","colorDark":"#00294f","band":1,"off":[0,1.1]}},{"type":"Feature","geometry":{"type":"Point","coordinates":[19.816446,41.326754]},"properties":{"name":"Gjethja","band":1,"modes":"bus","arr":["5B","10A","10B"],"off":[0,-0.8]}},{"type":"Feature","geometry":{"type":"Point","coordinates":[19.816446,41.326754]},"properties":{"name":"Dollari B","band":1,"modes":"bus","arr":["5B","10A","10B"],"off":[0,-1.9]}},{"type":"Feature","geometry":{"type":"Point","coordinates":[19.816446,41.326754]},"properties":{"line":"5B","mode":"bus","color":"#0059a9","colorDark":"#00294f","band":1,"off":[-3.4,1.1]}},{"type":"Feature","geometry":{"type":"Point","coordinates":[19.816446,41.326754]},"properties":{"line":"10A","mode":"bus","color":"#0059a9","colorDark":"#00294f","band":1,"off":[0,1.1]}},{"type":"Feature","geometry":{"type":"Point","coordinates":[19.816446,41.326754]},"properties":{"line":"10B","mode":"bus","color":"#0059a9","colorDark":"#00294f","band":1,"off":[3.4,1.1]}},{"type":"Feature","geometry":{"type":"Point","coordinates":[19.772,41.360663]},"properties":{"name":"Instituti Bujqësor","band":1,"modes":"bus","arr":["5B"],"off":[0,-0.8]}},{"type":"Feature","geometry":{"type":"Point","coordinates":[19.772,41.360663]},"properties":{"line":"5B","mode":"bus","color":"#0059a9","colorDark":"#00294f","band":1,"off":[0,1.1]}},{"type":"Feature","geometry":{"type":"Point","coordinates":[19.757587,41.365895]},"properties":{"name":"Bregu Lumit","band":1,"modes":"bus","arr":["6"],"off":[0,-0.8]}},{"type":"Feature","geometry":{"type":"Point","coordinates":[19.757587,41.365895]},"properties":{"line":"6","mode":"bus","color":"#0059a9","colorDark":"#00294f","band":1,"off":[0,1.1]}},{"type":"Feature","geometry":{"type":"Point","coordinates":[19.843793,41.312709]},"properties":{"name":"Sanatorium","band":1,"modes":"bus","arr":["8B"],"off":[0,-0.8]}},{"type":"Feature","geometry":{"type":"Point","coordinates":[19.843793,41.312709]},"properties":{"line":"8B","mode":"bus","color":"#0059a9","colorDark":"#00294f","band":1,"off":[0,1.1]}},{"type":"Feature","geometry":{"type":"Point","coordinates":[19.830122,41.29946]},"properties":{"name":"Sauk i Vjeter","band":1,"modes":"bus","arr":["8C"],"off":[0,-0.8]}},{"type":"Feature","geometry":{"type":"Point","coordinates":[19.830122,41.29946]},"properties":{"line":"8C","mode":"bus","color":"#0059a9","colorDark":"#00294f","band":1,"off":[0,1.1]}},{"type":"Feature","geometry":{"type":"Point","coordinates":[19.849837,41.322347]},"properties":{"name":"Depo Ujit A","band":1,"modes":"bus","arr":["9A"],"off":[0,-0.8]}},{"type":"Feature","geometry":{"type":"Point","coordinates":[19.849837,41.322347]},"properties":{"line":"9A","mode":"bus","color":"#0059a9","colorDark":"#00294f","band":1,"off":[0,1.1]}},{"type":"Feature","geometry":{"type":"Point","coordinates":[19.806714,41.347405]},"properties":{"name":"Uzina Dinamo","band":1,"modes":"bus","arr":["9A","9B","12A"],"off":[0,-0.8]}},{"type":"Feature","geometry":{"type":"Point","coordinates":[19.806714,41.347405]},"properties":{"line":"9A","mode":"bus","color":"#0059a9","colorDark":"#00294f","band":1,"off":[-3.4,1.1]}},{"type":"Feature","geometry":{"type":"Point","coordinates":[19.806714,41.347405]},"properties":{"line":"9B","mode":"bus","color":"#0059a9","colorDark":"#00294f","band":1,"off":[0,1.1]}},{"type":"Feature","geometry":{"type":"Point","coordinates":[19.806714,41.347405]},"properties":{"line":"12A","mode":"bus","color":"#0059a9","colorDark":"#00294f","band":1,"off":[3.4,1.1]}},{"type":"Feature","geometry":{"type":"Point","coordinates":[19.854054,41.320845]},"properties":{"name":"Çollakët","band":1,"modes":"bus","arr":["9B","10B"],"off":[0,-0.8]}},{"type":"Feature","geometry":{"type":"Point","coordinates":[19.854054,41.320845]},"properties":{"name":"Binak Alia","band":1,"modes":"bus","arr":["9B","10B"],"off":[0,-1.9]}},{"type":"Feature","geometry":{"type":"Point","coordinates":[19.854054,41.320845]},"properties":{"line":"9B","mode":"bus","color":"#0059a9","colorDark":"#00294f","band":1,"off":[-1.7,1.1]}},{"type":"Feature","geometry":{"type":"Point","coordinates":[19.854054,41.320845]},"properties":{"line":"10B","mode":"bus","color":"#0059a9","colorDark":"#00294f","band":1,"off":[1.7,1.1]}},{"type":"Feature","geometry":{"type":"Point","coordinates":[19.84983,41.324395]},"properties":{"name":"Depo Ujit B","band":1,"modes":"bus","arr":["10A"],"off":[0,-0.8]}},{"type":"Feature","geometry":{"type":"Point","coordinates":[19.84983,41.324395]},"properties":{"line":"10A","mode":"bus","color":"#0059a9","colorDark":"#00294f","band":1,"off":[0,1.1]}},{"type":"Feature","geometry":{"type":"Point","coordinates":[19.84836,41.334355]},"properties":{"name":"Shkozë","band":1,"modes":"bus","arr":["10C"],"off":[0,-0.8]}},{"type":"Feature","geometry":{"type":"Point","coordinates":[19.84836,41.334355]},"properties":{"line":"10C","mode":"bus","color":"#0059a9","colorDark":"#00294f","band":1,"off":[0,1.1]}},{"type":"Feature","geometry":{"type":"Point","coordinates":[19.787651,41.335396]},"properties":{"name":"Dhora Leka","band":1,"modes":"bus","arr":["10C"],"off":[0,-0.8]}},{"type":"Feature","geometry":{"type":"Point","coordinates":[19.787651,41.335396]},"properties":{"line":"10C","mode":"bus","color":"#0059a9","colorDark":"#00294f","band":1,"off":[0,1.1]}},{"type":"Feature","geometry":{"type":"Point","coordinates":[19.867336,41.350504]},"properties":{"name":"Thesari","band":1,"modes":"bus","arr":["11"],"off":[0,-0.8]}},{"type":"Feature","geometry":{"type":"Point","coordinates":[19.867336,41.350504]},"properties":{"line":"11","mode":"bus","color":"#0059a9","colorDark":"#00294f","band":1,"off":[0,1.1]}},{"type":"Feature","geometry":{"type":"Point","coordinates":[19.745329,41.303334]},"properties":{"name":"Karburanti","band":1,"modes":"bus","arr":["12A","12B"],"off":[0,-0.8]}},{"type":"Feature","geometry":{"type":"Point","coordinates":[19.745329,41.303334]},"properties":{"line":"12A","mode":"bus","color":"#0059a9","colorDark":"#00294f","band":1,"off":[-1.7,1.1]}},{"type":"Feature","geometry":{"type":"Point","coordinates":[19.745329,41.303334]},"properties":{"line":"12B","mode":"bus","color":"#0059a9","colorDark":"#00294f","band":1,"off":[1.7,1.1]}},{"type":"Feature","geometry":{"type":"Point","coordinates":[19.768009,41.314314]},"properties":{"name":"Kombinat","band":1,"modes":"bus","arr":["15A","15B"],"off":[0,-0.8]}},{"type":"Feature","geometry":{"type":"Point","coordinates":[19.768009,41.314314]},"properties":{"line":"15A","mode":"bus","color":"#0059a9","colorDark":"#00294f","band":1,"off":[-1.7,1.1]}},{"type":"Feature","geometry":{"type":"Point","coordinates":[19.768009,41.314314]},"properties":{"line":"15B","mode":"bus","color":"#0059a9","colorDark":"#00294f","band":1,"off":[1.7,1.1]}},{"type":"Feature","geometry":{"type":"Point","coordinates":[19.82382,41.348999]},"properties":{"name":"5 Maji","band":1,"modes":"bus","arr":["12B"],"off":[0,-0.8]}},{"type":"Feature","geometry":{"type":"Point","coordinates":[19.82382,41.348999]},"properties":{"line":"12B","mode":"bus","color":"#0059a9","colorDark":"#00294f","band":1,"off":[0,1.1]}},{"type":"Feature","geometry":{"type":"Point","coordinates":[19.850503,41.34543]},"properties":{"name":"Aleksandër Moisiu","band":1,"modes":"bus","arr":["15A"],"off":[0,-0.8]}},{"type":"Feature","geometry":{"type":"Point","coordinates":[19.850503,41.34543]},"properties":{"line":"15A","mode":"bus","color":"#0059a9","colorDark":"#00294f","band":1,"off":[0,1.1]}},{"type":"Feature","geometry":{"type":"Point","coordinates":[19.854952,41.369879]},"properties":{"name":"Rruga Arbërit","band":1,"modes":"bus","arr":["15B"],"off":[0,-0.8]}},{"type":"Feature","geometry":{"type":"Point","coordinates":[19.854952,41.369879]},"properties":{"line":"15B","mode":"bus","color":"#0059a9","colorDark":"#00294f","band":1,"off":[0,1.1]}},{"type":"Feature","geometry":{"type":"Point","coordinates":[19.829328,41.339686]},"properties":{"name":"Farmacia 10","band":1,"modes":"bus","arr":["16A","16B"],"off":[0,-0.8]}},{"type":"Feature","geometry":{"type":"Point","coordinates":[19.829328,41.339686]},"properties":{"line":"16A","mode":"bus","color":"#0059a9","colorDark":"#00294f","band":1,"off":[-1.7,1.1]}},{"type":"Feature","geometry":{"type":"Point","coordinates":[19.829328,41.339686]},"properties":{"line":"16B","mode":"bus","color":"#0059a9","colorDark":"#00294f","band":1,"off":[1.7,1.1]}},{"type":"Feature","geometry":{"type":"Point","coordinates":[19.797532,41.315449]},"properties":{"name":"Selitë","band":2,"modes":"bus","arr":["1A"],"off":[0,-0.8]}},{"type":"Feature","geometry":{"type":"Point","coordinates":[19.797532,41.315449]},"properties":{"line":"1A","mode":"bus","color":"#0059a9","colorDark":"#00294f","band":2,"off":[0,1.1]}},{"type":"Feature","geometry":{"type":"Point","coordinates":[19.831418,41.350561]},"properties":{"name":"Allias","band":2,"modes":"bus","arr":["1A","1B"],"off":[0,-0.8]}},{"type":"Feature","geometry":{"type":"Point","coordinates":[19.831418,41.350561]},"properties":{"line":"1A","mode":"bus","color":"#0059a9","colorDark":"#00294f","band":2,"off":[-1.7,1.1]}},{"type":"Feature","geometry":{"type":"Point","coordinates":[19.831418,41.350561]},"properties":{"line":"1B","mode":"bus","color":"#0059a9","colorDark":"#00294f","band":2,"off":[1.7,1.1]}},{"type":"Feature","geometry":{"type":"Point","coordinates":[19.816415,41.335257]},"properties":{"name":"Shkencat e Natyrës","band":2,"modes":"bus","arr":["2"],"off":[0,-0.8]}},{"type":"Feature","geometry":{"type":"Point","coordinates":[19.816415,41.335257]},"properties":{"line":"2","mode":"bus","color":"#0059a9","colorDark":"#00294f","band":2,"off":[0,1.1]}},{"type":"Feature","geometry":{"type":"Point","coordinates":[19.816703,41.330106]},"properties":{"name":"Muzeu Kombëtar B","band":2,"modes":"bus","arr":["4","6"],"off":[0,-0.8]}},{"type":"Feature","geometry":{"type":"Point","coordinates":[19.816703,41.330106]},"properties":{"line":"4","mode":"bus","color":"#0059a9","colorDark":"#00294f","band":2,"off":[-1.7,1.1]}},{"type":"Feature","geometry":{"type":"Point","coordinates":[19.816703,41.330106]},"properties":{"line":"6","mode":"bus","color":"#0059a9","colorDark":"#00294f","band":2,"off":[1.7,1.1]}},{"type":"Feature","geometry":{"type":"Point","coordinates":[19.798437,41.306921]},"properties":{"name":"Kodra Diellit 2","band":2,"modes":"bus","arr":["1B"],"off":[0,-0.8]}},{"type":"Feature","geometry":{"type":"Point","coordinates":[19.798437,41.306921]},"properties":{"line":"1B","mode":"bus","color":"#0059a9","colorDark":"#00294f","band":2,"off":[0,1.1]}},{"type":"Feature","geometry":{"type":"Point","coordinates":[19.858435,41.282944]},"properties":{"name":"TEG","band":2,"modes":"bus","arr":["2"],"off":[0,-0.8]}},{"type":"Feature","geometry":{"type":"Point","coordinates":[19.858435,41.282944]},"properties":{"line":"2","mode":"bus","color":"#0059a9","colorDark":"#00294f","band":2,"off":[0,1.1]}},{"type":"Feature","geometry":{"type":"Point","coordinates":[19.821403,41.329454]},"properties":{"name":"9 Katëshet B","band":2,"modes":"bus","arr":["5A","8A","8B","8C"],"off":[0,-0.8]}},{"type":"Feature","geometry":{"type":"Point","coordinates":[19.821403,41.329454]},"properties":{"line":"5A","mode":"bus","color":"#0059a9","colorDark":"#00294f","band":2,"off":[-5.1,1.1]}},{"type":"Feature","geometry":{"type":"Point","coordinates":[19.821403,41.329454]},"properties":{"line":"8A","mode":"bus","color":"#0059a9","colorDark":"#00294f","band":2,"off":[-1.7,1.1]}},{"type":"Feature","geometry":{"type":"Point","coordinates":[19.821403,41.329454]},"properties":{"line":"8B","mode":"bus","color":"#0059a9","colorDark":"#00294f","band":2,"off":[1.7,1.1]}},{"type":"Feature","geometry":{"type":"Point","coordinates":[19.821403,41.329454]},"properties":{"line":"8C","mode":"bus","color":"#0059a9","colorDark":"#00294f","band":2,"off":[5.1,1.1]}},{"type":"Feature","geometry":{"type":"Point","coordinates":[19.855098,41.28319]},"properties":{"name":"Terminali Juglindor","band":2,"modes":"bus","arr":["8A"],"off":[0,-0.8]}},{"type":"Feature","geometry":{"type":"Point","coordinates":[19.855098,41.28319]},"properties":{"line":"8A","mode":"bus","color":"#0059a9","colorDark":"#00294f","band":2,"off":[0,1.1]}},{"type":"Feature","geometry":{"type":"Point","coordinates":[19.765611,41.340793]},"properties":{"name":"Serat","band":2,"modes":"bus","arr":["3A","3B"],"off":[0,-0.8]}},{"type":"Feature","geometry":{"type":"Point","coordinates":[19.765611,41.340793]},"properties":{"line":"3A","mode":"bus","color":"#0059a9","colorDark":"#00294f","band":2,"off":[-1.7,1.1]}},{"type":"Feature","geometry":{"type":"Point","coordinates":[19.765611,41.340793]},"properties":{"line":"3B","mode":"bus","color":"#0059a9","colorDark":"#00294f","band":2,"off":[1.7,1.1]}},{"type":"Feature","geometry":{"type":"Point","coordinates":[19.783778,41.332576]},"properties":{"name":"Kristaq Mone","band":2,"modes":"bus","arr":["13A"],"off":[0,-0.8]}},{"type":"Feature","geometry":{"type":"Point","coordinates":[19.783778,41.332576]},"properties":{"line":"13A","mode":"bus","color":"#0059a9","colorDark":"#00294f","band":2,"off":[0,1.1]}},{"type":"Feature","geometry":{"type":"Point","coordinates":[19.820922,41.328418]},"properties":{"name":"Biblioteka","band":2,"modes":"bus","arr":["3C","11"],"off":[0,-0.8]}},{"type":"Feature","geometry":{"type":"Point","coordinates":[19.820922,41.328418]},"properties":{"line":"3C","mode":"bus","color":"#0059a9","colorDark":"#00294f","band":2,"off":[-1.7,1.1]}},{"type":"Feature","geometry":{"type":"Point","coordinates":[19.820922,41.328418]},"properties":{"line":"11","mode":"bus","color":"#0059a9","colorDark":"#00294f","band":2,"off":[1.7,1.1]}},{"type":"Feature","geometry":{"type":"Point","coordinates":[19.784473,41.330387]},"properties":{"name":"Kryqëzimi Kashar","band":2,"modes":"bus","arr":["13B"],"off":[0,-0.8]}},{"type":"Feature","geometry":{"type":"Point","coordinates":[19.784473,41.330387]},"properties":{"line":"13B","mode":"bus","color":"#0059a9","colorDark":"#00294f","band":2,"off":[0,1.1]}},{"type":"Feature","geometry":{"type":"Point","coordinates":[19.738521,41.352888]},"properties":{"name":"100 Vjetori","band":2,"modes":"bus","arr":["3C"],"off":[0,-0.8]}},{"type":"Feature","geometry":{"type":"Point","coordinates":[19.738521,41.352888]},"properties":{"line":"3C","mode":"bus","color":"#0059a9","colorDark":"#00294f","band":2,"off":[0,1.1]}},{"type":"Feature","geometry":{"type":"Point","coordinates":[19.68882,41.367165]},"properties":{"name":"City Park","band":2,"modes":"bus","arr":["4"],"off":[0,-0.8]}},{"type":"Feature","geometry":{"type":"Point","coordinates":[19.68882,41.367165]},"properties":{"line":"4","mode":"bus","color":"#0059a9","colorDark":"#00294f","band":2,"off":[0,1.1]}},{"type":"Feature","geometry":{"type":"Point","coordinates":[19.870394,41.331856]},"properties":{"name":"Autotraktorët","band":2,"modes":"bus","arr":["5A"],"off":[0,-0.8]}},{"type":"Feature","geometry":{"type":"Point","coordinates":[19.870394,41.331856]},"properties":{"line":"5A","mode":"bus","color":"#0059a9","colorDark":"#00294f","band":2,"off":[0,1.1]}},{"type":"Feature","geometry":{"type":"Point","coordinates":[19.816446,41.327221]},"properties":{"name":"Gjethja","band":2,"modes":"bus","arr":["5B","10A","10B"],"off":[0,-0.8]}},{"type":"Feature","geometry":{"type":"Point","coordinates":[19.816446,41.327221]},"properties":{"name":"Dollari B","band":2,"modes":"bus","arr":["5B","10A","10B"],"off":[0,-1.9]}},{"type":"Feature","geometry":{"type":"Point","coordinates":[19.816446,41.327221]},"properties":{"line":"5B","mode":"bus","color":"#0059a9","colorDark":"#00294f","band":2,"off":[-3.4,1.1]}},{"type":"Feature","geometry":{"type":"Point","coordinates":[19.816446,41.327221]},"properties":{"line":"10A","mode":"bus","color":"#0059a9","colorDark":"#00294f","band":2,"off":[0,1.1]}},{"type":"Feature","geometry":{"type":"Point","coordinates":[19.816446,41.327221]},"properties":{"line":"10B","mode":"bus","color":"#0059a9","colorDark":"#00294f","band":2,"off":[3.4,1.1]}},{"type":"Feature","geometry":{"type":"Point","coordinates":[19.772,41.360663]},"properties":{"name":"Instituti Bujqësor","band":2,"modes":"bus","arr":["5B"],"off":[0,-0.8]}},{"type":"Feature","geometry":{"type":"Point","coordinates":[19.772,41.360663]},"properties":{"line":"5B","mode":"bus","color":"#0059a9","colorDark":"#00294f","band":2,"off":[0,1.1]}},{"type":"Feature","geometry":{"type":"Point","coordinates":[19.757587,41.365895]},"properties":{"name":"Bregu Lumit","band":2,"modes":"bus","arr":["6"],"off":[0,-0.8]}},{"type":"Feature","geometry":{"type":"Point","coordinates":[19.757587,41.365895]},"properties":{"line":"6","mode":"bus","color":"#0059a9","colorDark":"#00294f","band":2,"off":[0,1.1]}},{"type":"Feature","geometry":{"type":"Point","coordinates":[19.843793,41.312709]},"properties":{"name":"Sanatorium","band":2,"modes":"bus","arr":["8B"],"off":[0,-0.8]}},{"type":"Feature","geometry":{"type":"Point","coordinates":[19.843793,41.312709]},"properties":{"line":"8B","mode":"bus","color":"#0059a9","colorDark":"#00294f","band":2,"off":[0,1.1]}},{"type":"Feature","geometry":{"type":"Point","coordinates":[19.830122,41.29946]},"properties":{"name":"Sauk i Vjeter","band":2,"modes":"bus","arr":["8C"],"off":[0,-0.8]}},{"type":"Feature","geometry":{"type":"Point","coordinates":[19.830122,41.29946]},"properties":{"line":"8C","mode":"bus","color":"#0059a9","colorDark":"#00294f","band":2,"off":[0,1.1]}},{"type":"Feature","geometry":{"type":"Point","coordinates":[19.849837,41.322347]},"properties":{"name":"Depo Ujit A","band":2,"modes":"bus","arr":["9A"],"off":[0,-0.8]}},{"type":"Feature","geometry":{"type":"Point","coordinates":[19.849837,41.322347]},"properties":{"line":"9A","mode":"bus","color":"#0059a9","colorDark":"#00294f","band":2,"off":[0,1.1]}},{"type":"Feature","geometry":{"type":"Point","coordinates":[19.806714,41.347405]},"properties":{"name":"Uzina Dinamo","band":2,"modes":"bus","arr":["9A","9B","12A"],"off":[0,-0.8]}},{"type":"Feature","geometry":{"type":"Point","coordinates":[19.806714,41.347405]},"properties":{"line":"9A","mode":"bus","color":"#0059a9","colorDark":"#00294f","band":2,"off":[-3.4,1.1]}},{"type":"Feature","geometry":{"type":"Point","coordinates":[19.806714,41.347405]},"properties":{"line":"9B","mode":"bus","color":"#0059a9","colorDark":"#00294f","band":2,"off":[0,1.1]}},{"type":"Feature","geometry":{"type":"Point","coordinates":[19.806714,41.347405]},"properties":{"line":"12A","mode":"bus","color":"#0059a9","colorDark":"#00294f","band":2,"off":[3.4,1.1]}},{"type":"Feature","geometry":{"type":"Point","coordinates":[19.854054,41.320845]},"properties":{"name":"Çollakët","band":2,"modes":"bus","arr":["9B","10B"],"off":[0,-0.8]}},{"type":"Feature","geometry":{"type":"Point","coordinates":[19.854054,41.320845]},"properties":{"name":"Binak Alia","band":2,"modes":"bus","arr":["9B","10B"],"off":[0,-1.9]}},{"type":"Feature","geometry":{"type":"Point","coordinates":[19.854054,41.320845]},"properties":{"line":"9B","mode":"bus","color":"#0059a9","colorDark":"#00294f","band":2,"off":[-1.7,1.1]}},{"type":"Feature","geometry":{"type":"Point","coordinates":[19.854054,41.320845]},"properties":{"line":"10B","mode":"bus","color":"#0059a9","colorDark":"#00294f","band":2,"off":[1.7,1.1]}},{"type":"Feature","geometry":{"type":"Point","coordinates":[19.84983,41.324395]},"properties":{"name":"Depo Ujit B","band":2,"modes":"bus","arr":["10A"],"off":[0,-0.8]}},{"type":"Feature","geometry":{"type":"Point","coordinates":[19.84983,41.324395]},"properties":{"line":"10A","mode":"bus","color":"#0059a9","colorDark":"#00294f","band":2,"off":[0,1.1]}},{"type":"Feature","geometry":{"type":"Point","coordinates":[19.84836,41.334355]},"properties":{"name":"Shkozë","band":2,"modes":"bus","arr":["10C"],"off":[0,-0.8]}},{"type":"Feature","geometry":{"type":"Point","coordinates":[19.84836,41.334355]},"properties":{"line":"10C","mode":"bus","color":"#0059a9","colorDark":"#00294f","band":2,"off":[0,1.1]}},{"type":"Feature","geometry":{"type":"Point","coordinates":[19.787651,41.335396]},"properties":{"name":"Dhora Leka","band":2,"modes":"bus","arr":["10C"],"off":[0,-0.8]}},{"type":"Feature","geometry":{"type":"Point","coordinates":[19.787651,41.335396]},"properties":{"line":"10C","mode":"bus","color":"#0059a9","colorDark":"#00294f","band":2,"off":[0,1.1]}},{"type":"Feature","geometry":{"type":"Point","coordinates":[19.867336,41.350504]},"properties":{"name":"Thesari","band":2,"modes":"bus","arr":["11"],"off":[0,-0.8]}},{"type":"Feature","geometry":{"type":"Point","coordinates":[19.867336,41.350504]},"properties":{"line":"11","mode":"bus","color":"#0059a9","colorDark":"#00294f","band":2,"off":[0,1.1]}},{"type":"Feature","geometry":{"type":"Point","coordinates":[19.745329,41.303334]},"properties":{"name":"Karburanti","band":2,"modes":"bus","arr":["12A","12B"],"off":[0,-0.8]}},{"type":"Feature","geometry":{"type":"Point","coordinates":[19.745329,41.303334]},"properties":{"line":"12A","mode":"bus","color":"#0059a9","colorDark":"#00294f","band":2,"off":[-1.7,1.1]}},{"type":"Feature","geometry":{"type":"Point","coordinates":[19.745329,41.303334]},"properties":{"line":"12B","mode":"bus","color":"#0059a9","colorDark":"#00294f","band":2,"off":[1.7,1.1]}},{"type":"Feature","geometry":{"type":"Point","coordinates":[19.768009,41.314314]},"properties":{"name":"Kombinat","band":2,"modes":"bus","arr":["15A","15B"],"off":[0,-0.8]}},{"type":"Feature","geometry":{"type":"Point","coordinates":[19.768009,41.314314]},"properties":{"line":"15A","mode":"bus","color":"#0059a9","colorDark":"#00294f","band":2,"off":[-1.7,1.1]}},{"type":"Feature","geometry":{"type":"Point","coordinates":[19.768009,41.314314]},"properties":{"line":"15B","mode":"bus","color":"#0059a9","colorDark":"#00294f","band":2,"off":[1.7,1.1]}},{"type":"Feature","geometry":{"type":"Point","coordinates":[19.82382,41.348999]},"properties":{"name":"5 Maji","band":2,"modes":"bus","arr":["12B"],"off":[0,-0.8]}},{"type":"Feature","geometry":{"type":"Point","coordinates":[19.82382,41.348999]},"properties":{"line":"12B","mode":"bus","color":"#0059a9","colorDark":"#00294f","band":2,"off":[0,1.1]}},{"type":"Feature","geometry":{"type":"Point","coordinates":[19.850503,41.34543]},"properties":{"name":"Aleksandër Moisiu","band":2,"modes":"bus","arr":["15A"],"off":[0,-0.8]}},{"type":"Feature","geometry":{"type":"Point","coordinates":[19.850503,41.34543]},"properties":{"line":"15A","mode":"bus","color":"#0059a9","colorDark":"#00294f","band":2,"off":[0,1.1]}},{"type":"Feature","geometry":{"type":"Point","coordinates":[19.854952,41.369879]},"properties":{"name":"Rruga Arbërit","band":2,"modes":"bus","arr":["15B"],"off":[0,-0.8]}},{"type":"Feature","geometry":{"type":"Point","coordinates":[19.854952,41.369879]},"properties":{"line":"15B","mode":"bus","color":"#0059a9","colorDark":"#00294f","band":2,"off":[0,1.1]}},{"type":"Feature","geometry":{"type":"Point","coordinates":[19.829328,41.339686]},"properties":{"name":"Farmacia 10","band":2,"modes":"bus","arr":["16A","16B"],"off":[0,-0.8]}},{"type":"Feature","geometry":{"type":"Point","coordinates":[19.829328,41.339686]},"properties":{"line":"16A","mode":"bus","color":"#0059a9","colorDark":"#00294f","band":2,"off":[-1.7,1.1]}},{"type":"Feature","geometry":{"type":"Point","coordinates":[19.829328,41.339686]},"properties":{"line":"16B","mode":"bus","color":"#0059a9","colorDark":"#00294f","band":2,"off":[1.7,1.1]}},{"type":"Feature","geometry":{"type":"Point","coordinates":[19.797532,41.315449]},"properties":{"name":"Selitë","band":3,"modes":"bus","arr":["1A"],"off":[0,-0.8]}},{"type":"Feature","geometry":{"type":"Point","coordinates":[19.797532,41.315449]},"properties":{"line":"1A","mode":"bus","color":"#0059a9","colorDark":"#00294f","band":3,"off":[0,1.1]}},{"type":"Feature","geometry":{"type":"Point","coordinates":[19.831418,41.350561]},"properties":{"name":"Allias","band":3,"modes":"bus","arr":["1A","1B"],"off":[0,-0.8]}},{"type":"Feature","geometry":{"type":"Point","coordinates":[19.831418,41.350561]},"properties":{"line":"1A","mode":"bus","color":"#0059a9","colorDark":"#00294f","band":3,"off":[-1.7,1.1]}},{"type":"Feature","geometry":{"type":"Point","coordinates":[19.831418,41.350561]},"properties":{"line":"1B","mode":"bus","color":"#0059a9","colorDark":"#00294f","band":3,"off":[1.7,1.1]}},{"type":"Feature","geometry":{"type":"Point","coordinates":[19.816415,41.335257]},"properties":{"name":"Shkencat e Natyrës","band":3,"modes":"bus","arr":["2"],"off":[0,-0.8]}},{"type":"Feature","geometry":{"type":"Point","coordinates":[19.816415,41.335257]},"properties":{"line":"2","mode":"bus","color":"#0059a9","colorDark":"#00294f","band":3,"off":[0,1.1]}},{"type":"Feature","geometry":{"type":"Point","coordinates":[19.816703,41.330106]},"properties":{"name":"Muzeu Kombëtar B","band":3,"modes":"bus","arr":["4","6"],"off":[0,-0.8]}},{"type":"Feature","geometry":{"type":"Point","coordinates":[19.816703,41.330106]},"properties":{"line":"4","mode":"bus","color":"#0059a9","colorDark":"#00294f","band":3,"off":[-1.7,1.1]}},{"type":"Feature","geometry":{"type":"Point","coordinates":[19.816703,41.330106]},"properties":{"line":"6","mode":"bus","color":"#0059a9","colorDark":"#00294f","band":3,"off":[1.7,1.1]}},{"type":"Feature","geometry":{"type":"Point","coordinates":[19.798437,41.306921]},"properties":{"name":"Kodra Diellit 2","band":3,"modes":"bus","arr":["1B"],"off":[0,-0.8]}},{"type":"Feature","geometry":{"type":"Point","coordinates":[19.798437,41.306921]},"properties":{"line":"1B","mode":"bus","color":"#0059a9","colorDark":"#00294f","band":3,"off":[0,1.1]}},{"type":"Feature","geometry":{"type":"Point","coordinates":[19.858435,41.282944]},"properties":{"name":"TEG","band":3,"modes":"bus","arr":["2"],"off":[0,-0.8]}},{"type":"Feature","geometry":{"type":"Point","coordinates":[19.858435,41.282944]},"properties":{"line":"2","mode":"bus","color":"#0059a9","colorDark":"#00294f","band":3,"off":[0,1.1]}},{"type":"Feature","geometry":{"type":"Point","coordinates":[19.821403,41.329454]},"properties":{"name":"9 Katëshet B","band":3,"modes":"bus","arr":["5A","8A","8B","8C"],"off":[0,-0.8]}},{"type":"Feature","geometry":{"type":"Point","coordinates":[19.821403,41.329454]},"properties":{"line":"5A","mode":"bus","color":"#0059a9","colorDark":"#00294f","band":3,"off":[-5.1,1.1]}},{"type":"Feature","geometry":{"type":"Point","coordinates":[19.821403,41.329454]},"properties":{"line":"8A","mode":"bus","color":"#0059a9","colorDark":"#00294f","band":3,"off":[-1.7,1.1]}},{"type":"Feature","geometry":{"type":"Point","coordinates":[19.821403,41.329454]},"properties":{"line":"8B","mode":"bus","color":"#0059a9","colorDark":"#00294f","band":3,"off":[1.7,1.1]}},{"type":"Feature","geometry":{"type":"Point","coordinates":[19.821403,41.329454]},"properties":{"line":"8C","mode":"bus","color":"#0059a9","colorDark":"#00294f","band":3,"off":[5.1,1.1]}},{"type":"Feature","geometry":{"type":"Point","coordinates":[19.855098,41.28319]},"properties":{"name":"Terminali Juglindor","band":3,"modes":"bus","arr":["8A"],"off":[0,-0.8]}},{"type":"Feature","geometry":{"type":"Point","coordinates":[19.855098,41.28319]},"properties":{"line":"8A","mode":"bus","color":"#0059a9","colorDark":"#00294f","band":3,"off":[0,1.1]}},{"type":"Feature","geometry":{"type":"Point","coordinates":[19.765611,41.340793]},"properties":{"name":"Serat","band":3,"modes":"bus","arr":["3A","3B"],"off":[0,-0.8]}},{"type":"Feature","geometry":{"type":"Point","coordinates":[19.765611,41.340793]},"properties":{"line":"3A","mode":"bus","color":"#0059a9","colorDark":"#00294f","band":3,"off":[-1.7,1.1]}},{"type":"Feature","geometry":{"type":"Point","coordinates":[19.765611,41.340793]},"properties":{"line":"3B","mode":"bus","color":"#0059a9","colorDark":"#00294f","band":3,"off":[1.7,1.1]}},{"type":"Feature","geometry":{"type":"Point","coordinates":[19.783778,41.332576]},"properties":{"name":"Kristaq Mone","band":3,"modes":"bus","arr":["13A"],"off":[0,-0.8]}},{"type":"Feature","geometry":{"type":"Point","coordinates":[19.783778,41.332576]},"properties":{"line":"13A","mode":"bus","color":"#0059a9","colorDark":"#00294f","band":3,"off":[0,1.1]}},{"type":"Feature","geometry":{"type":"Point","coordinates":[19.820922,41.328418]},"properties":{"name":"Biblioteka","band":3,"modes":"bus","arr":["3C","11"],"off":[0,-0.8]}},{"type":"Feature","geometry":{"type":"Point","coordinates":[19.820922,41.328418]},"properties":{"line":"3C","mode":"bus","color":"#0059a9","colorDark":"#00294f","band":3,"off":[-1.7,1.1]}},{"type":"Feature","geometry":{"type":"Point","coordinates":[19.820922,41.328418]},"properties":{"line":"11","mode":"bus","color":"#0059a9","colorDark":"#00294f","band":3,"off":[1.7,1.1]}},{"type":"Feature","geometry":{"type":"Point","coordinates":[19.784473,41.330387]},"properties":{"name":"Kryqëzimi Kashar","band":3,"modes":"bus","arr":["13B"],"off":[0,-0.8]}},{"type":"Feature","geometry":{"type":"Point","coordinates":[19.784473,41.330387]},"properties":{"line":"13B","mode":"bus","color":"#0059a9","colorDark":"#00294f","band":3,"off":[0,1.1]}},{"type":"Feature","geometry":{"type":"Point","coordinates":[19.738521,41.352888]},"properties":{"name":"100 Vjetori","band":3,"modes":"bus","arr":["3C"],"off":[0,-0.8]}},{"type":"Feature","geometry":{"type":"Point","coordinates":[19.738521,41.352888]},"properties":{"line":"3C","mode":"bus","color":"#0059a9","colorDark":"#00294f","band":3,"off":[0,1.1]}},{"type":"Feature","geometry":{"type":"Point","coordinates":[19.68882,41.367165]},"properties":{"name":"City Park","band":3,"modes":"bus","arr":["4"],"off":[0,-0.8]}},{"type":"Feature","geometry":{"type":"Point","coordinates":[19.68882,41.367165]},"properties":{"line":"4","mode":"bus","color":"#0059a9","colorDark":"#00294f","band":3,"off":[0,1.1]}},{"type":"Feature","geometry":{"type":"Point","coordinates":[19.870394,41.331856]},"properties":{"name":"Autotraktorët","band":3,"modes":"bus","arr":["5A"],"off":[0,-0.8]}},{"type":"Feature","geometry":{"type":"Point","coordinates":[19.870394,41.331856]},"properties":{"line":"5A","mode":"bus","color":"#0059a9","colorDark":"#00294f","band":3,"off":[0,1.1]}},{"type":"Feature","geometry":{"type":"Point","coordinates":[19.816318,41.327687]},"properties":{"name":"Dollari B","band":3,"modes":"bus","arr":["10A","10B"],"off":[0,-0.8]}},{"type":"Feature","geometry":{"type":"Point","coordinates":[19.816318,41.327687]},"properties":{"line":"10A","mode":"bus","color":"#0059a9","colorDark":"#00294f","band":3,"off":[-1.7,1.1]}},{"type":"Feature","geometry":{"type":"Point","coordinates":[19.816318,41.327687]},"properties":{"line":"10B","mode":"bus","color":"#0059a9","colorDark":"#00294f","band":3,"off":[1.7,1.1]}},{"type":"Feature","geometry":{"type":"Point","coordinates":[19.772,41.360663]},"properties":{"name":"Instituti Bujqësor","band":3,"modes":"bus","arr":["5B"],"off":[0,-0.8]}},{"type":"Feature","geometry":{"type":"Point","coordinates":[19.772,41.360663]},"properties":{"line":"5B","mode":"bus","color":"#0059a9","colorDark":"#00294f","band":3,"off":[0,1.1]}},{"type":"Feature","geometry":{"type":"Point","coordinates":[19.816575,41.326755]},"properties":{"name":"Gjethja","band":3,"modes":"bus","arr":["5B"],"off":[0,-0.8]}},{"type":"Feature","geometry":{"type":"Point","coordinates":[19.816575,41.326755]},"properties":{"line":"5B","mode":"bus","color":"#0059a9","colorDark":"#00294f","band":3,"off":[0,1.1]}},{"type":"Feature","geometry":{"type":"Point","coordinates":[19.757587,41.365895]},"properties":{"name":"Bregu Lumit","band":3,"modes":"bus","arr":["6"],"off":[0,-0.8]}},{"type":"Feature","geometry":{"type":"Point","coordinates":[19.757587,41.365895]},"properties":{"line":"6","mode":"bus","color":"#0059a9","colorDark":"#00294f","band":3,"off":[0,1.1]}},{"type":"Feature","geometry":{"type":"Point","coordinates":[19.843793,41.312709]},"properties":{"name":"Sanatorium","band":3,"modes":"bus","arr":["8B"],"off":[0,-0.8]}},{"type":"Feature","geometry":{"type":"Point","coordinates":[19.843793,41.312709]},"properties":{"line":"8B","mode":"bus","color":"#0059a9","colorDark":"#00294f","band":3,"off":[0,1.1]}},{"type":"Feature","geometry":{"type":"Point","coordinates":[19.830122,41.29946]},"properties":{"name":"Sauk i Vjeter","band":3,"modes":"bus","arr":["8C"],"off":[0,-0.8]}},{"type":"Feature","geometry":{"type":"Point","coordinates":[19.830122,41.29946]},"properties":{"line":"8C","mode":"bus","color":"#0059a9","colorDark":"#00294f","band":3,"off":[0,1.1]}},{"type":"Feature","geometry":{"type":"Point","coordinates":[19.849837,41.322347]},"properties":{"name":"Depo Ujit A","band":3,"modes":"bus","arr":["9A"],"off":[0,-0.8]}},{"type":"Feature","geometry":{"type":"Point","coordinates":[19.849837,41.322347]},"properties":{"line":"9A","mode":"bus","color":"#0059a9","colorDark":"#00294f","band":3,"off":[0,1.1]}},{"type":"Feature","geometry":{"type":"Point","coordinates":[19.806714,41.347405]},"properties":{"name":"Uzina Dinamo","band":3,"modes":"bus","arr":["9A","9B","12A"],"off":[0,-0.8]}},{"type":"Feature","geometry":{"type":"Point","coordinates":[19.806714,41.347405]},"properties":{"line":"9A","mode":"bus","color":"#0059a9","colorDark":"#00294f","band":3,"off":[-3.4,1.1]}},{"type":"Feature","geometry":{"type":"Point","coordinates":[19.806714,41.347405]},"properties":{"line":"9B","mode":"bus","color":"#0059a9","colorDark":"#00294f","band":3,"off":[0,1.1]}},{"type":"Feature","geometry":{"type":"Point","coordinates":[19.806714,41.347405]},"properties":{"line":"12A","mode":"bus","color":"#0059a9","colorDark":"#00294f","band":3,"off":[3.4,1.1]}},{"type":"Feature","geometry":{"type":"Point","coordinates":[19.853337,41.321045]},"properties":{"name":"Binak Alia","band":3,"modes":"bus","arr":["9B"],"off":[0,-0.8]}},{"type":"Feature","geometry":{"type":"Point","coordinates":[19.853337,41.321045]},"properties":{"line":"9B","mode":"bus","color":"#0059a9","colorDark":"#00294f","band":3,"off":[0,1.1]}},{"type":"Feature","geometry":{"type":"Point","coordinates":[19.84983,41.324395]},"properties":{"name":"Depo Ujit B","band":3,"modes":"bus","arr":["10A"],"off":[0,-0.8]}},{"type":"Feature","geometry":{"type":"Point","coordinates":[19.84983,41.324395]},"properties":{"line":"10A","mode":"bus","color":"#0059a9","colorDark":"#00294f","band":3,"off":[0,1.1]}},{"type":"Feature","geometry":{"type":"Point","coordinates":[19.85477,41.320644]},"properties":{"name":"Çollakët","band":3,"modes":"bus","arr":["10B"],"off":[0,-0.8]}},{"type":"Feature","geometry":{"type":"Point","coordinates":[19.85477,41.320644]},"properties":{"line":"10B","mode":"bus","color":"#0059a9","colorDark":"#00294f","band":3,"off":[0,1.1]}},{"type":"Feature","geometry":{"type":"Point","coordinates":[19.84836,41.334355]},"properties":{"name":"Shkozë","band":3,"modes":"bus","arr":["10C"],"off":[0,-0.8]}},{"type":"Feature","geometry":{"type":"Point","coordinates":[19.84836,41.334355]},"properties":{"line":"10C","mode":"bus","color":"#0059a9","colorDark":"#00294f","band":3,"off":[0,1.1]}},{"type":"Feature","geometry":{"type":"Point","coordinates":[19.787651,41.335396]},"properties":{"name":"Dhora Leka","band":3,"modes":"bus","arr":["10C"],"off":[0,-0.8]}},{"type":"Feature","geometry":{"type":"Point","coordinates":[19.787651,41.335396]},"properties":{"line":"10C","mode":"bus","color":"#0059a9","colorDark":"#00294f","band":3,"off":[0,1.1]}},{"type":"Feature","geometry":{"type":"Point","coordinates":[19.867336,41.350504]},"properties":{"name":"Thesari","band":3,"modes":"bus","arr":["11"],"off":[0,-0.8]}},{"type":"Feature","geometry":{"type":"Point","coordinates":[19.867336,41.350504]},"properties":{"line":"11","mode":"bus","color":"#0059a9","colorDark":"#00294f","band":3,"off":[0,1.1]}},{"type":"Feature","geometry":{"type":"Point","coordinates":[19.745329,41.303334]},"properties":{"name":"Karburanti","band":3,"modes":"bus","arr":["12A","12B"],"off":[0,-0.8]}},{"type":"Feature","geometry":{"type":"Point","coordinates":[19.745329,41.303334]},"properties":{"line":"12A","mode":"bus","color":"#0059a9","colorDark":"#00294f","band":3,"off":[-1.7,1.1]}},{"type":"Feature","geometry":{"type":"Point","coordinates":[19.745329,41.303334]},"properties":{"line":"12B","mode":"bus","color":"#0059a9","colorDark":"#00294f","band":3,"off":[1.7,1.1]}},{"type":"Feature","geometry":{"type":"Point","coordinates":[19.768009,41.314314]},"properties":{"name":"Kombinat","band":3,"modes":"bus","arr":["15A","15B"],"off":[0,-0.8]}},{"type":"Feature","geometry":{"type":"Point","coordinates":[19.768009,41.314314]},"properties":{"line":"15A","mode":"bus","color":"#0059a9","colorDark":"#00294f","band":3,"off":[-1.7,1.1]}},{"type":"Feature","geometry":{"type":"Point","coordinates":[19.768009,41.314314]},"properties":{"line":"15B","mode":"bus","color":"#0059a9","colorDark":"#00294f","band":3,"off":[1.7,1.1]}},{"type":"Feature","geometry":{"type":"Point","coordinates":[19.82382,41.348999]},"properties":{"name":"5 Maji","band":3,"modes":"bus","arr":["12B"],"off":[0,-0.8]}},{"type":"Feature","geometry":{"type":"Point","coordinates":[19.82382,41.348999]},"properties":{"line":"12B","mode":"bus","color":"#0059a9","colorDark":"#00294f","band":3,"off":[0,1.1]}},{"type":"Feature","geometry":{"type":"Point","coordinates":[19.850503,41.34543]},"properties":{"name":"Aleksandër Moisiu","band":3,"modes":"bus","arr":["15A"],"off":[0,-0.8]}},{"type":"Feature","geometry":{"type":"Point","coordinates":[19.850503,41.34543]},"properties":{"line":"15A","mode":"bus","color":"#0059a9","colorDark":"#00294f","band":3,"off":[0,1.1]}},{"type":"Feature","geometry":{"type":"Point","coordinates":[19.854952,41.369879]},"properties":{"name":"Rruga Arbërit","band":3,"modes":"bus","arr":["15B"],"off":[0,-0.8]}},{"type":"Feature","geometry":{"type":"Point","coordinates":[19.854952,41.369879]},"properties":{"line":"15B","mode":"bus","color":"#0059a9","colorDark":"#00294f","band":3,"off":[0,1.1]}},{"type":"Feature","geometry":{"type":"Point","coordinates":[19.829328,41.339686]},"properties":{"name":"Farmacia 10","band":3,"modes":"bus","arr":["16A","16B"],"off":[0,-0.8]}},{"type":"Feature","geometry":{"type":"Point","coordinates":[19.829328,41.339686]},"properties":{"line":"16A","mode":"bus","color":"#0059a9","colorDark":"#00294f","band":3,"off":[-1.7,1.1]}},{"type":"Feature","geometry":{"type":"Point","coordinates":[19.829328,41.339686]},"properties":{"line":"16B","mode":"bus","color":"#0059a9","colorDark":"#00294f","band":3,"off":[1.7,1.1]}},{"type":"Feature","geometry":{"type":"Point","coordinates":[19.797532,41.315449]},"properties":{"name":"Selitë","band":4,"modes":"bus","arr":["1A"],"off":[0,-0.8]}},{"type":"Feature","geometry":{"type":"Point","coordinates":[19.797532,41.315449]},"properties":{"line":"1A","mode":"bus","color":"#0059a9","colorDark":"#00294f","band":4,"off":[0,1.1]}},{"type":"Feature","geometry":{"type":"Point","coordinates":[19.831418,41.350561]},"properties":{"name":"Allias","band":4,"modes":"bus","arr":["1A","1B"],"off":[0,-0.8]}},{"type":"Feature","geometry":{"type":"Point","coordinates":[19.831418,41.350561]},"properties":{"line":"1A","mode":"bus","color":"#0059a9","colorDark":"#00294f","band":4,"off":[-1.7,1.1]}},{"type":"Feature","geometry":{"type":"Point","coordinates":[19.831418,41.350561]},"properties":{"line":"1B","mode":"bus","color":"#0059a9","colorDark":"#00294f","band":4,"off":[1.7,1.1]}},{"type":"Feature","geometry":{"type":"Point","coordinates":[19.816415,41.335257]},"properties":{"name":"Shkencat e Natyrës","band":4,"modes":"bus","arr":["2"],"off":[0,-0.8]}},{"type":"Feature","geometry":{"type":"Point","coordinates":[19.816415,41.335257]},"properties":{"line":"2","mode":"bus","color":"#0059a9","colorDark":"#00294f","band":4,"off":[0,1.1]}},{"type":"Feature","geometry":{"type":"Point","coordinates":[19.816703,41.330106]},"properties":{"name":"Muzeu Kombëtar B","band":4,"modes":"bus","arr":["4","6"],"off":[0,-0.8]}},{"type":"Feature","geometry":{"type":"Point","coordinates":[19.816703,41.330106]},"properties":{"line":"4","mode":"bus","color":"#0059a9","colorDark":"#00294f","band":4,"off":[-1.7,1.1]}},{"type":"Feature","geometry":{"type":"Point","coordinates":[19.816703,41.330106]},"properties":{"line":"6","mode":"bus","color":"#0059a9","colorDark":"#00294f","band":4,"off":[1.7,1.1]}},{"type":"Feature","geometry":{"type":"Point","coordinates":[19.798437,41.306921]},"properties":{"name":"Kodra Diellit 2","band":4,"modes":"bus","arr":["1B"],"off":[0,-0.8]}},{"type":"Feature","geometry":{"type":"Point","coordinates":[19.798437,41.306921]},"properties":{"line":"1B","mode":"bus","color":"#0059a9","colorDark":"#00294f","band":4,"off":[0,1.1]}},{"type":"Feature","geometry":{"type":"Point","coordinates":[19.858435,41.282944]},"properties":{"name":"TEG","band":4,"modes":"bus","arr":["2"],"off":[0,-0.8]}},{"type":"Feature","geometry":{"type":"Point","coordinates":[19.858435,41.282944]},"properties":{"line":"2","mode":"bus","color":"#0059a9","colorDark":"#00294f","band":4,"off":[0,1.1]}},{"type":"Feature","geometry":{"type":"Point","coordinates":[19.821403,41.329454]},"properties":{"name":"9 Katëshet B","band":4,"modes":"bus","arr":["5A","8A","8B","8C"],"off":[0,-0.8]}},{"type":"Feature","geometry":{"type":"Point","coordinates":[19.821403,41.329454]},"properties":{"line":"5A","mode":"bus","color":"#0059a9","colorDark":"#00294f","band":4,"off":[-5.1,1.1]}},{"type":"Feature","geometry":{"type":"Point","coordinates":[19.821403,41.329454]},"properties":{"line":"8A","mode":"bus","color":"#0059a9","colorDark":"#00294f","band":4,"off":[-1.7,1.1]}},{"type":"Feature","geometry":{"type":"Point","coordinates":[19.821403,41.329454]},"properties":{"line":"8B","mode":"bus","color":"#0059a9","colorDark":"#00294f","band":4,"off":[1.7,1.1]}},{"type":"Feature","geometry":{"type":"Point","coordinates":[19.821403,41.329454]},"properties":{"line":"8C","mode":"bus","color":"#0059a9","colorDark":"#00294f","band":4,"off":[5.1,1.1]}},{"type":"Feature","geometry":{"type":"Point","coordinates":[19.855098,41.28319]},"properties":{"name":"Terminali Juglindor","band":4,"modes":"bus","arr":["8A"],"off":[0,-0.8]}},{"type":"Feature","geometry":{"type":"Point","coordinates":[19.855098,41.28319]},"properties":{"line":"8A","mode":"bus","color":"#0059a9","colorDark":"#00294f","band":4,"off":[0,1.1]}},{"type":"Feature","geometry":{"type":"Point","coordinates":[19.765611,41.340793]},"properties":{"name":"Serat","band":4,"modes":"bus","arr":["3A","3B"],"off":[0,-0.8]}},{"type":"Feature","geometry":{"type":"Point","coordinates":[19.765611,41.340793]},"properties":{"line":"3A","mode":"bus","color":"#0059a9","colorDark":"#00294f","band":4,"off":[-1.7,1.1]}},{"type":"Feature","geometry":{"type":"Point","coordinates":[19.765611,41.340793]},"properties":{"line":"3B","mode":"bus","color":"#0059a9","colorDark":"#00294f","band":4,"off":[1.7,1.1]}},{"type":"Feature","geometry":{"type":"Point","coordinates":[19.783778,41.332576]},"properties":{"name":"Kristaq Mone","band":4,"modes":"bus","arr":["13A"],"off":[0,-0.8]}},{"type":"Feature","geometry":{"type":"Point","coordinates":[19.783778,41.332576]},"properties":{"line":"13A","mode":"bus","color":"#0059a9","colorDark":"#00294f","band":4,"off":[0,1.1]}},{"type":"Feature","geometry":{"type":"Point","coordinates":[19.820922,41.328418]},"properties":{"name":"Biblioteka","band":4,"modes":"bus","arr":["3C","11"],"off":[0,-0.8]}},{"type":"Feature","geometry":{"type":"Point","coordinates":[19.820922,41.328418]},"properties":{"line":"3C","mode":"bus","color":"#0059a9","colorDark":"#00294f","band":4,"off":[-1.7,1.1]}},{"type":"Feature","geometry":{"type":"Point","coordinates":[19.820922,41.328418]},"properties":{"line":"11","mode":"bus","color":"#0059a9","colorDark":"#00294f","band":4,"off":[1.7,1.1]}},{"type":"Feature","geometry":{"type":"Point","coordinates":[19.784473,41.330387]},"properties":{"name":"Kryqëzimi Kashar","band":4,"modes":"bus","arr":["13B"],"off":[0,-0.8]}},{"type":"Feature","geometry":{"type":"Point","coordinates":[19.784473,41.330387]},"properties":{"line":"13B","mode":"bus","color":"#0059a9","colorDark":"#00294f","band":4,"off":[0,1.1]}},{"type":"Feature","geometry":{"type":"Point","coordinates":[19.738521,41.352888]},"properties":{"name":"100 Vjetori","band":4,"modes":"bus","arr":["3C"],"off":[0,-0.8]}},{"type":"Feature","geometry":{"type":"Point","coordinates":[19.738521,41.352888]},"properties":{"line":"3C","mode":"bus","color":"#0059a9","colorDark":"#00294f","band":4,"off":[0,1.1]}},{"type":"Feature","geometry":{"type":"Point","coordinates":[19.68882,41.367165]},"properties":{"name":"City Park","band":4,"modes":"bus","arr":["4"],"off":[0,-0.8]}},{"type":"Feature","geometry":{"type":"Point","coordinates":[19.68882,41.367165]},"properties":{"line":"4","mode":"bus","color":"#0059a9","colorDark":"#00294f","band":4,"off":[0,1.1]}},{"type":"Feature","geometry":{"type":"Point","coordinates":[19.870394,41.331856]},"properties":{"name":"Autotraktorët","band":4,"modes":"bus","arr":["5A"],"off":[0,-0.8]}},{"type":"Feature","geometry":{"type":"Point","coordinates":[19.870394,41.331856]},"properties":{"line":"5A","mode":"bus","color":"#0059a9","colorDark":"#00294f","band":4,"off":[0,1.1]}},{"type":"Feature","geometry":{"type":"Point","coordinates":[19.816318,41.327687]},"properties":{"name":"Dollari B","band":4,"modes":"bus","arr":["10A","10B"],"off":[0,-0.8]}},{"type":"Feature","geometry":{"type":"Point","coordinates":[19.816318,41.327687]},"properties":{"line":"10A","mode":"bus","color":"#0059a9","colorDark":"#00294f","band":4,"off":[-1.7,1.1]}},{"type":"Feature","geometry":{"type":"Point","coordinates":[19.816318,41.327687]},"properties":{"line":"10B","mode":"bus","color":"#0059a9","colorDark":"#00294f","band":4,"off":[1.7,1.1]}},{"type":"Feature","geometry":{"type":"Point","coordinates":[19.772,41.360663]},"properties":{"name":"Instituti Bujqësor","band":4,"modes":"bus","arr":["5B"],"off":[0,-0.8]}},{"type":"Feature","geometry":{"type":"Point","coordinates":[19.772,41.360663]},"properties":{"line":"5B","mode":"bus","color":"#0059a9","colorDark":"#00294f","band":4,"off":[0,1.1]}},{"type":"Feature","geometry":{"type":"Point","coordinates":[19.816575,41.326755]},"properties":{"name":"Gjethja","band":4,"modes":"bus","arr":["5B"],"off":[0,-0.8]}},{"type":"Feature","geometry":{"type":"Point","coordinates":[19.816575,41.326755]},"properties":{"line":"5B","mode":"bus","color":"#0059a9","colorDark":"#00294f","band":4,"off":[0,1.1]}},{"type":"Feature","geometry":{"type":"Point","coordinates":[19.757587,41.365895]},"properties":{"name":"Bregu Lumit","band":4,"modes":"bus","arr":["6"],"off":[0,-0.8]}},{"type":"Feature","geometry":{"type":"Point","coordinates":[19.757587,41.365895]},"properties":{"line":"6","mode":"bus","color":"#0059a9","colorDark":"#00294f","band":4,"off":[0,1.1]}},{"type":"Feature","geometry":{"type":"Point","coordinates":[19.843793,41.312709]},"properties":{"name":"Sanatorium","band":4,"modes":"bus","arr":["8B"],"off":[0,-0.8]}},{"type":"Feature","geometry":{"type":"Point","coordinates":[19.843793,41.312709]},"properties":{"line":"8B","mode":"bus","color":"#0059a9","colorDark":"#00294f","band":4,"off":[0,1.1]}},{"type":"Feature","geometry":{"type":"Point","coordinates":[19.830122,41.29946]},"properties":{"name":"Sauk i Vjeter","band":4,"modes":"bus","arr":["8C"],"off":[0,-0.8]}},{"type":"Feature","geometry":{"type":"Point","coordinates":[19.830122,41.29946]},"properties":{"line":"8C","mode":"bus","color":"#0059a9","colorDark":"#00294f","band":4,"off":[0,1.1]}},{"type":"Feature","geometry":{"type":"Point","coordinates":[19.849837,41.322347]},"properties":{"name":"Depo Ujit A","band":4,"modes":"bus","arr":["9A"],"off":[0,-0.8]}},{"type":"Feature","geometry":{"type":"Point","coordinates":[19.849837,41.322347]},"properties":{"line":"9A","mode":"bus","color":"#0059a9","colorDark":"#00294f","band":4,"off":[0,1.1]}},{"type":"Feature","geometry":{"type":"Point","coordinates":[19.806714,41.347405]},"properties":{"name":"Uzina Dinamo","band":4,"modes":"bus","arr":["9A","9B","12A"],"off":[0,-0.8]}},{"type":"Feature","geometry":{"type":"Point","coordinates":[19.806714,41.347405]},"properties":{"line":"9A","mode":"bus","color":"#0059a9","colorDark":"#00294f","band":4,"off":[-3.4,1.1]}},{"type":"Feature","geometry":{"type":"Point","coordinates":[19.806714,41.347405]},"properties":{"line":"9B","mode":"bus","color":"#0059a9","colorDark":"#00294f","band":4,"off":[0,1.1]}},{"type":"Feature","geometry":{"type":"Point","coordinates":[19.806714,41.347405]},"properties":{"line":"12A","mode":"bus","color":"#0059a9","colorDark":"#00294f","band":4,"off":[3.4,1.1]}},{"type":"Feature","geometry":{"type":"Point","coordinates":[19.853337,41.321045]},"properties":{"name":"Binak Alia","band":4,"modes":"bus","arr":["9B"],"off":[0,-0.8]}},{"type":"Feature","geometry":{"type":"Point","coordinates":[19.853337,41.321045]},"properties":{"line":"9B","mode":"bus","color":"#0059a9","colorDark":"#00294f","band":4,"off":[0,1.1]}},{"type":"Feature","geometry":{"type":"Point","coordinates":[19.84983,41.324395]},"properties":{"name":"Depo Ujit B","band":4,"modes":"bus","arr":["10A"],"off":[0,-0.8]}},{"type":"Feature","geometry":{"type":"Point","coordinates":[19.84983,41.324395]},"properties":{"line":"10A","mode":"bus","color":"#0059a9","colorDark":"#00294f","band":4,"off":[0,1.1]}},{"type":"Feature","geometry":{"type":"Point","coordinates":[19.85477,41.320644]},"properties":{"name":"Çollakët","band":4,"modes":"bus","arr":["10B"],"off":[0,-0.8]}},{"type":"Feature","geometry":{"type":"Point","coordinates":[19.85477,41.320644]},"properties":{"line":"10B","mode":"bus","color":"#0059a9","colorDark":"#00294f","band":4,"off":[0,1.1]}},{"type":"Feature","geometry":{"type":"Point","coordinates":[19.84836,41.334355]},"properties":{"name":"Shkozë","band":4,"modes":"bus","arr":["10C"],"off":[0,-0.8]}},{"type":"Feature","geometry":{"type":"Point","coordinates":[19.84836,41.334355]},"properties":{"line":"10C","mode":"bus","color":"#0059a9","colorDark":"#00294f","band":4,"off":[0,1.1]}},{"type":"Feature","geometry":{"type":"Point","coordinates":[19.787651,41.335396]},"properties":{"name":"Dhora Leka","band":4,"modes":"bus","arr":["10C"],"off":[0,-0.8]}},{"type":"Feature","geometry":{"type":"Point","coordinates":[19.787651,41.335396]},"properties":{"line":"10C","mode":"bus","color":"#0059a9","colorDark":"#00294f","band":4,"off":[0,1.1]}},{"type":"Feature","geometry":{"type":"Point","coordinates":[19.867336,41.350504]},"properties":{"name":"Thesari","band":4,"modes":"bus","arr":["11"],"off":[0,-0.8]}},{"type":"Feature","geometry":{"type":"Point","coordinates":[19.867336,41.350504]},"properties":{"line":"11","mode":"bus","color":"#0059a9","colorDark":"#00294f","band":4,"off":[0,1.1]}},{"type":"Feature","geometry":{"type":"Point","coordinates":[19.745329,41.303334]},"properties":{"name":"Karburanti","band":4,"modes":"bus","arr":["12A","12B"],"off":[0,-0.8]}},{"type":"Feature","geometry":{"type":"Point","coordinates":[19.745329,41.303334]},"properties":{"line":"12A","mode":"bus","color":"#0059a9","colorDark":"#00294f","band":4,"off":[-1.7,1.1]}},{"type":"Feature","geometry":{"type":"Point","coordinates":[19.745329,41.303334]},"properties":{"line":"12B","mode":"bus","color":"#0059a9","colorDark":"#00294f","band":4,"off":[1.7,1.1]}},{"type":"Feature","geometry":{"type":"Point","coordinates":[19.768009,41.314314]},"properties":{"name":"Kombinat","band":4,"modes":"bus","arr":["15A","15B"],"off":[0,-0.8]}},{"type":"Feature","geometry":{"type":"Point","coordinates":[19.768009,41.314314]},"properties":{"line":"15A","mode":"bus","color":"#0059a9","colorDark":"#00294f","band":4,"off":[-1.7,1.1]}},{"type":"Feature","geometry":{"type":"Point","coordinates":[19.768009,41.314314]},"properties":{"line":"15B","mode":"bus","color":"#0059a9","colorDark":"#00294f","band":4,"off":[1.7,1.1]}},{"type":"Feature","geometry":{"type":"Point","coordinates":[19.82382,41.348999]},"properties":{"name":"5 Maji","band":4,"modes":"bus","arr":["12B"],"off":[0,-0.8]}},{"type":"Feature","geometry":{"type":"Point","coordinates":[19.82382,41.348999]},"properties":{"line":"12B","mode":"bus","color":"#0059a9","colorDark":"#00294f","band":4,"off":[0,1.1]}},{"type":"Feature","geometry":{"type":"Point","coordinates":[19.850503,41.34543]},"properties":{"name":"Aleksandër Moisiu","band":4,"modes":"bus","arr":["15A"],"off":[0,-0.8]}},{"type":"Feature","geometry":{"type":"Point","coordinates":[19.850503,41.34543]},"properties":{"line":"15A","mode":"bus","color":"#0059a9","colorDark":"#00294f","band":4,"off":[0,1.1]}},{"type":"Feature","geometry":{"type":"Point","coordinates":[19.854952,41.369879]},"properties":{"name":"Rruga Arbërit","band":4,"modes":"bus","arr":["15B"],"off":[0,-0.8]}},{"type":"Feature","geometry":{"type":"Point","coordinates":[19.854952,41.369879]},"properties":{"line":"15B","mode":"bus","color":"#0059a9","colorDark":"#00294f","band":4,"off":[0,1.1]}},{"type":"Feature","geometry":{"type":"Point","coordinates":[19.829328,41.339686]},"properties":{"name":"Farmacia 10","band":4,"modes":"bus","arr":["16A","16B"],"off":[0,-0.8]}},{"type":"Feature","geometry":{"type":"Point","coordinates":[19.829328,41.339686]},"properties":{"line":"16A","mode":"bus","color":"#0059a9","colorDark":"#00294f","band":4,"off":[-1.7,1.1]}},{"type":"Feature","geometry":{"type":"Point","coordinates":[19.829328,41.339686]},"properties":{"line":"16B","mode":"bus","color":"#0059a9","colorDark":"#00294f","band":4,"off":[1.7,1.1]}}]}