{"type":"FeatureCollection","features":[{"type":"Feature","properties":{"mode":"bus","n":5,"arr":["3A","4","5B","13A","16B"],"lines":"3A, 4, 5B, 13A, 16B"},"geometry":{"type":"LineString","coordinates":[[19.804006,41.332948],[19.804046,41.332875]]}},{"type":"Feature","properties":{"mode":"bus","n":5,"arr":["3A","4","5B","13A","16A"],"lines":"3A, 4, 5B, 13A, 16A"},"geometry":{"type":"LineString","coordinates":[[19.804629,41.332781],[19.804553,41.332748]]}},{"type":"Feature","properties":{"mode":"bus","n":6,"arr":["3A","3C","12A","12B","15A","15B"],"lines":"3A, 3C, 12A, 12B, 15A, 15B"},"geometry":{"type":"LineString","coordinates":[[19.789187,41.321793],[19.789312,41.321875],[19.789392,41.321896],[19.789592,41.321881],[19.789702,41.321914],[19.790164,41.321977],[19.790485,41.322063]]}},{"type":"Feature","properties":{"mode":"bus","n":6,"arr":["3A","3C","12A","12B","15A","15B"],"lines":"3A, 3C, 12A, 12B, 15A, 15B"},"geometry":{"type":"LineString","coordinates":[[19.80379,41.325907],[19.798017,41.324152],[19.793367,41.322832],[19.792039,41.322476]]}},{"type":"Feature","properties":{"mode":"bus","n":6,"arr":["3A","3C","12A","12B","15A","15B"],"lines":"3A, 3C, 12A, 12B, 15A, 15B"},"geometry":{"type":"LineString","coordinates":[[19.789145,41.321736],[19.788914,41.321587],[19.788639,41.321454],[19.787648,41.321083],[19.78396,41.319831]]}},{"type":"Feature","properties":{"mode":"bus","n":7,"arr":["3A","3C","12A","12B","13B","15A","15B"],"lines":"3A, 3C, 12A, 12B, 13B, 15A, 15B"},"geometry":{"type":"LineString","coordinates":[[19.789187,41.321793],[19.789145,41.321736]]}},{"type":"Feature","properties":{"mode":"bus","n":7,"arr":["3B","3C","12A","12B","13B","15A","15B"],"lines":"3B, 3C, 12A, 12B, 13B, 15A, 15B"},"geometry":{"type":"LineString","coordinates":[[19.789349,41.321417],[19.78946,41.321402],[19.789629,41.321437],[19.790008,41.321725],[19.790252,41.321849],[19.791494,41.322208]]}},{"type":"Feature","properties":{"mode":"bus","n":5,"arr":["8A","8B","8C","9A","9B"],"lines":"8A, 8B, 8C, 9A, 9B"},"geometry":{"type":"LineString","coordinates":[[19.825175,41.324923],[19.824815,41.323847],[19.824787,41.323132],[19.824807,41.322911],[19.824912,41.32266],[19.825414,41.321771],[19.826586,41.319779],[19.826901,41.319483],[19.827169,41.31934],[19.829031,41.31875],[19.829465,41.318543],[19.830344,41.318251],[19.830399,41.318219],[19.83048,41.318093],[19.83056,41.318035],[19.830667,41.318011],[19.830776,41.318028]]}},{"type":"Feature","properties":{"mode":"bus","n":5,"arr":["8A","8B","8C","9A","9B"],"lines":"8A, 8B, 8C, 9A, 9B"},"geometry":{"type":"LineString","coordinates":[[19.830906,41.318203],[19.830909,41.318182]]}},{"type":"Feature","properties":{"mode":"bus","n":5,"arr":["8A","8B","8C","9A","9B"],"lines":"8A, 8B, 8C, 9A, 9B"},"geometry":{"type":"LineString","coordinates":[[19.825187,41.324567],[19.824909,41.323719],[19.824863,41.323179],[19.824899,41.322847],[19.825733,41.321353],[19.826658,41.319816],[19.826965,41.319538],[19.82707,41.319458],[19.827205,41.319395],[19.829058,41.31882],[19.829325,41.318691],[19.830395,41.318321],[19.830457,41.318313],[19.830631,41.318356],[19.830742,41.318353]]}},{"type":"Feature","properties":{"mode":"bus","n":20,"arr":["1A","1B","3B","3C","4","5A","5B","8A","8B","8C","9A","9B","10A","10B","10C","12A","12B","13A","15A","15B"],"lines":"1A, 1B, 3B, 3C, 4, 5A, 5B, 8A, 8B, 8C, 9A, 9B, 10A, 10B, 10C, 12A, 12B, 13A, 15A, 15B"},"geometry":{"type":"LineString","coordinates":[[19.816902,41.325598],[19.819015,41.325929]]}},{"type":"Feature","properties":{"mode":"bus","n":18,"arr":["1A","1B","3B","3C","4","5B","8A","8B","8C","9A","9B","10A","10B","10C","12A","12B","15A","15B"],"lines":"1A, 1B, 3B, 3C, 4, 5B, 8A, 8B, 8C, 9A, 9B, 10A, 10B, 10C, 12A, 12B, 15A, 15B"},"geometry":{"type":"LineString","coordinates":[[19.819015,41.325929],[19.819105,41.325943]]}},{"type":"Feature","properties":{"mode":"bus","n":20,"arr":["1A","1B","2","3B","3C","4","5B","8A","8B","8C","9A","9B","10A","10B","10C","12A","12B","13B","15A","15B"],"lines":"1A, 1B, 2, 3B, 3C, 4, 5B, 8A, 8B, 8C, 9A, 9B, 10A, 10B, 10C, 12A, 12B, 13B, 15A, 15B"},"geometry":{"type":"LineString","coordinates":[[19.819105,41.325943],[19.818909,41.326713],[19.818944,41.326779],[19.81911,41.326915],[19.819307,41.327132],[19.819404,41.327158],[19.822489,41.327427],[19.822671,41.327474],[19.822706,41.327514]]}},{"type":"Feature","properties":{"mode":"bus","n":21,"arr":["1A","1B","2","3B","3C","4","5A","5B","8A","8B","8C","9A","9B","10A","10B","10C","12A","12B","13B","15A","15B"],"lines":"1A, 1B, 2, 3B, 3C, 4, 5A, 5B, 8A, 8B, 8C, 9A, 9B, 10A, 10B, 10C, 12A, 12B, 13B, 15A, 15B"},"geometry":{"type":"LineString","coordinates":[[19.822706,41.327514],[19.822463,41.327685],[19.822331,41.327831],[19.821889,41.328603]]}},{"type":"Feature","properties":{"mode":"bus","n":14,"arr":["1A","1B","2","4","5A","5B","8A","8B","8C","12A","12B","13B","15A","15B"],"lines":"1A, 1B, 2, 4, 5A, 5B, 8A, 8B, 8C, 12A, 12B, 13B, 15A, 15B"},"geometry":{"type":"LineString","coordinates":[[19.821889,41.328603],[19.82082,41.330465],[19.820675,41.330617]]}},{"type":"Feature","properties":{"mode":"bus","n":20,"arr":["1A","1B","3B","3C","4","5A","5B","6","8A","8B","8C","9A","10A","10B","10C","12A","12B","13B","15A","15B"],"lines":"1A, 1B, 3B, 3C, 4, 5A, 5B, 6, 8A, 8B, 8C, 9A, 10A, 10B, 10C, 12A, 12B, 13B, 15A, 15B"},"geometry":{"type":"LineString","coordinates":[[19.820675,41.330617],[19.820379,41.330598]]}},{"type":"Feature","properties":{"mode":"bus","n":21,"arr":["1A","1B","3B","3C","4","5A","5B","6","8A","8B","8C","9A","9B","10A","10B","10C","12A","12B","13B","15A","15B"],"lines":"1A, 1B, 3B, 3C, 4, 5A, 5B, 6, 8A, 8B, 8C, 9A, 9B, 10A, 10B, 10C, 12A, 12B, 13B, 15A, 15B"},"geometry":{"type":"LineString","coordinates":[[19.820379,41.330598],[19.820037,41.330611],[19.817947,41.330332]]}},{"type":"Feature","properties":{"mode":"bus","n":7,"arr":["1A","1B","9A","9B","12A","12B","13B"],"lines":"1A, 1B, 9A, 9B, 12A, 12B, 13B"},"geometry":{"type":"LineString","coordinates":[[19.817947,41.330332],[19.816387,41.335911]]}},{"type":"Feature","properties":{"mode":"bus","n":6,"arr":["1A","1B","6","12A","12B","16A"],"lines":"1A, 1B, 6, 12A, 12B, 16A"},"geometry":{"type":"LineString","coordinates":[[19.817437,41.33609],[19.816387,41.335911]]}},{"type":"Feature","properties":{"mode":"bus","n":5,"arr":["1A","1B","12A","12B","16A"],"lines":"1A, 1B, 12A, 12B, 16A"},"geometry":{"type":"LineString","coordinates":[[19.820067,41.337083],[19.818345,41.3364],[19.817603,41.336126],[19.817437,41.33609]]}},{"type":"Feature","properties":{"mode":"bus","n":5,"arr":["1A","1B","12A","12B","16B"],"lines":"1A, 1B, 12A, 12B, 16B"},"geometry":{"type":"LineString","coordinates":[[19.820008,41.337146],[19.817912,41.336312],[19.817675,41.336225],[19.817384,41.336159]]}},{"type":"Feature","properties":{"mode":"bus","n":6,"arr":["1A","1B","2","12A","12B","16B"],"lines":"1A, 1B, 2, 12A, 12B, 16B"},"geometry":{"type":"LineString","coordinates":[[19.817384,41.336159],[19.816358,41.335988]]}},{"type":"Feature","properties":{"mode":"bus","n":9,"arr":["1A","1B","2","9A","9B","12A","12B","13B","16B"],"lines":"1A, 1B, 2, 9A, 9B, 12A, 12B, 13B, 16B"},"geometry":{"type":"LineString","coordinates":[[19.816358,41.335988],[19.816214,41.335965]]}},{"type":"Feature","properties":{"mode":"bus","n":5,"arr":["1A","1B","2","12A","12B"],"lines":"1A, 1B, 2, 12A, 12B"},"geometry":{"type":"LineString","coordinates":[[19.816214,41.335965],[19.816302,41.335644]]}},{"type":"Feature","properties":{"mode":"bus","n":8,"arr":["1A","1B","2","9A","9B","12A","12B","13A"],"lines":"1A, 1B, 2, 9A, 9B, 12A, 12B, 13A"},"geometry":{"type":"LineString","coordinates":[[19.816302,41.335644],[19.81776,41.330302]]}},{"type":"Feature","properties":{"mode":"bus","n":22,"arr":["1A","1B","2","3B","3C","4","5A","5B","6","8A","8B","8C","9A","9B","10A","10B","10C","12A","12B","13A","15A","15B"],"lines":"1A, 1B, 2, 3B, 3C, 4, 5A, 5B, 6, 8A, 8B, 8C, 9A, 9B, 10A, 10B, 10C, 12A, 12B, 13A, 15A, 15B"},"geometry":{"type":"LineString","coordinates":[[19.81776,41.330302],[19.81692,41.330173],[19.816764,41.330132],[19.816622,41.330063],[19.816466,41.329954],[19.816329,41.3298],[19.81613,41.32941]]}},{"type":"Feature","properties":{"mode":"bus","n":18,"arr":["1A","1B","2","3C","5A","8A","8B","8C","9A","9B","10A","10B","10C","12A","12B","13A","15A","15B"],"lines":"1A, 1B, 2, 3C, 5A, 8A, 8B, 8C, 9A, 9B, 10A, 10B, 10C, 12A, 12B, 13A, 15A, 15B"},"geometry":{"type":"LineString","coordinates":[[19.81613,41.32941],[19.815978,41.328988]]}},{"type":"Feature","properties":{"mode":"bus","n":21,"arr":["1A","1B","2","3A","3C","4","5A","5B","8A","8B","8C","9A","9B","10A","10B","10C","12A","12B","13A","15A","15B"],"lines":"1A, 1B, 2, 3A, 3C, 4, 5A, 5B, 8A, 8B, 8C, 9A, 9B, 10A, 10B, 10C, 12A, 12B, 13A, 15A, 15B"},"geometry":{"type":"LineString","coordinates":[[19.815978,41.328988],[19.816074,41.328662]]}},{"type":"Feature","properties":{"mode":"bus","n":14,"arr":["1A","1B","2","4","5A","5B","8A","8B","8C","9A","9B","10A","10B","13A"],"lines":"1A, 1B, 2, 4, 5A, 5B, 8A, 8B, 8C, 9A, 9B, 10A, 10B, 13A"},"geometry":{"type":"LineString","coordinates":[[19.816074,41.328662],[19.816211,41.3281]]}},{"type":"Feature","properties":{"mode":"bus","n":21,"arr":["1A","1B","2","3B","3C","4","5A","5B","8A","8B","8C","9A","9B","10A","10B","10C","12A","12B","13A","15A","15B"],"lines":"1A, 1B, 2, 3B, 3C, 4, 5A, 5B, 8A, 8B, 8C, 9A, 9B, 10A, 10B, 10C, 12A, 12B, 13A, 15A, 15B"},"geometry":{"type":"LineString","coordinates":[[19.816211,41.3281],[19.816902,41.325598]]}},{"type":"Feature","properties":{"mode":"bus","n":5,"arr":["3A","3B","4","5B","6"],"lines":"3A, 3B, 4, 5B, 6"},"geometry":{"type":"LineString","coordinates":[[19.815284,41.329238],[19.815631,41.329116]]}},{"type":"Feature","properties":{"mode":"bus","n":7,"arr":["3A","3C","10C","12A","12B","15A","15B"],"lines":"3A, 3C, 10C, 12A, 12B, 15A, 15B"},"geometry":{"type":"LineString","coordinates":[[19.816074,41.328662],[19.816032,41.328327],[19.815926,41.328261],[19.815685,41.32822],[19.81228,41.328366],[19.811944,41.32836],[19.81149,41.328294],[19.80379,41.325907]]}},{"type":"Feature","properties":{"mode":"bus","n":7,"arr":["3A","3C","12A","12B","13A","15A","15B"],"lines":"3A, 3C, 12A, 12B, 13A, 15A, 15B"},"geometry":{"type":"LineString","coordinates":[[19.790485,41.322063],[19.792039,41.322476]]}},{"type":"Feature","properties":{"mode":"bus","n":6,"arr":["3B","3C","12A","12B","15A","15B"],"lines":"3B, 3C, 12A, 12B, 15A, 15B"},"geometry":{"type":"LineString","coordinates":[[19.784043,41.319804],[19.78865,41.321349],[19.788917,41.321398],[19.789349,41.321417]]}},{"type":"Feature","properties":{"mode":"bus","n":6,"arr":["3B","3C","12A","12B","15A","15B"],"lines":"3B, 3C, 12A, 12B, 15A, 15B"},"geometry":{"type":"LineString","coordinates":[[19.791494,41.322208],[19.798788,41.324276],[19.803433,41.325688]]}},{"type":"Feature","properties":{"mode":"bus","n":7,"arr":["3B","3C","10C","12A","12B","15A","15B"],"lines":"3B, 3C, 10C, 12A, 12B, 15A, 15B"},"geometry":{"type":"LineString","coordinates":[[19.803433,41.325688],[19.811514,41.328183],[19.811967,41.328251],[19.812283,41.32826],[19.816211,41.3281]]}},{"type":"Feature","properties":{"mode":"bus","n":8,"arr":["3B","3C","9A","9B","10A","10B","10C","11"],"lines":"3B, 3C, 9A, 9B, 10A, 10B, 10C, 11"},"geometry":{"type":"LineString","coordinates":[[19.821889,41.328603],[19.821018,41.328437]]}},{"type":"Feature","properties":{"mode":"bus","n":7,"arr":["3B","3C","9A","9B","10A","10B","10C"],"lines":"3B, 3C, 9A, 9B, 10A, 10B, 10C"},"geometry":{"type":"LineString","coordinates":[[19.821018,41.328437],[19.820526,41.32834],[19.820505,41.328338],[19.820489,41.328342],[19.820477,41.328351],[19.820469,41.328366],[19.819991,41.329923],[19.819937,41.330039],[19.819932,41.330061],[19.819937,41.330081],[19.819954,41.330099],[19.820443,41.330487]]}},{"type":"Feature","properties":{"mode":"bus","n":6,"arr":["3B","3C","9A","10A","10B","10C"],"lines":"3B, 3C, 9A, 10A, 10B, 10C"},"geometry":{"type":"LineString","coordinates":[[19.820443,41.330487],[19.820675,41.330617]]}},{"type":"Feature","properties":{"mode":"bus","n":14,"arr":["3B","3C","4","5A","5B","6","8A","8B","8C","10A","10B","10C","15A","15B"],"lines":"3B, 3C, 4, 5A, 5B, 6, 8A, 8B, 8C, 10A, 10B, 10C, 15A, 15B"},"geometry":{"type":"LineString","coordinates":[[19.817947,41.330332],[19.81776,41.330302]]}},{"type":"Feature","properties":{"mode":"bus","n":5,"arr":["3B","4","5B","13B","16B"],"lines":"3B, 4, 5B, 13B, 16B"},"geometry":{"type":"LineString","coordinates":[[19.805176,41.33368],[19.805722,41.334046],[19.806085,41.334244]]}},{"type":"Feature","properties":{"mode":"bus","n":9,"arr":["5A","8A","8B","8C","9A","9B","10A","10B","10C"],"lines":"5A, 8A, 8B, 8C, 9A, 9B, 10A, 10B, 10C"},"geometry":{"type":"LineString","coordinates":[[19.822706,41.327514],[19.823748,41.327059],[19.823966,41.327028],[19.824232,41.326924],[19.824487,41.326797],[19.824659,41.326671],[19.824735,41.326587],[19.824816,41.326413],[19.825112,41.32552]]}},{"type":"Feature","properties":{"mode":"bus","n":5,"arr":["5A","10A","10B","10C","16B"],"lines":"5A, 10A, 10B, 10C, 16B"},"geometry":{"type":"LineString","coordinates":[[19.825175,41.324923],[19.826161,41.325715]]}},{"type":"Feature","properties":{"mode":"bus","n":5,"arr":["6","9A","9B","13A","16A"],"lines":"6, 9A, 9B, 13A, 16A"},"geometry":{"type":"LineString","coordinates":[[19.815767,41.335817],[19.812436,41.335279]]}},{"type":"Feature","properties":{"mode":"bus","n":8,"arr":["8A","8B","8C","9A","9B","10A","10B","10C"],"lines":"8A, 8B, 8C, 9A, 9B, 10A, 10B, 10C"},"geometry":{"type":"LineString","coordinates":[[19.823748,41.327059],[19.823907,41.326958],[19.824365,41.326753],[19.824498,41.326661],[19.824629,41.326524],[19.825175,41.324923]]}},{"type":"Feature","properties":{"mode":"bus","n":6,"arr":["8A","8B","8C","9A","9B","10B"],"lines":"8A, 8B, 8C, 9A, 9B, 10B"},"geometry":{"type":"LineString","coordinates":[[19.825112,41.32552],[19.825283,41.324947],[19.825187,41.324567]]}}]}